id,uuid,parent_id,city_id,fixed,name,subname,address,geom,modified_at,deleted_at,synced_at,pick_up,drop_off,alt_name,venue_uuid,instructions_reference,lat,lon
"23556",92ba3ed5-3a9f-4c66-a00a-e111ed85ea28,,"4373",true,113 Club,Entrada,,POINT(-34.9071870108683 -8.05711202713335),2025-11-18 07:12:53.298744 UTC,,2025-11-18 09:35:05.801339 UTC,true,true,,1ad7137f-3976-4d15-a841-55f6937daa04,,-8.05711,-34.90719
"23022",c194ffda-09ec-4135-bced-6ee36c7d8803,,"4373",true,Aeroporto Internacional do Recife/Guararapes - Gilberto Freyre (REC),Aeroporto Internacional do Recife/Guararapes - Gilberto Freyre (REC),,POINT(-34.917916781365 -8.13150652899417),2025-11-18 07:12:53.298744 UTC,,2025-11-18 09:35:05.801339 UTC,false,true,,16a26765-89cb-4e1a-80c0-e6d1140fe915,,-8.13151,-34.91792
"23459",a831827c-25c7-40a9-b650-0a34da42b8df,,"4373",true,Americanas,Entrada,Americanas,POINT(-34.9073914704837 -8.08018870732574),2025-11-18 07:12:53.298744 UTC,,2025-11-18 09:35:05.801339 UTC,true,true,,3a4fcb15-3140-4413-acd6-6b17a84b7ac3,,-8.08019,-34.90739
"23501",5a184c37-83ba-4c2e-9be6-18dd47745d0f,,"4373",true,Armazenna 2 Centro Logístico,Entrada,,POINT(-34.9445870453614 -8.16755813874958),2025-11-18 07:12:53.298744 UTC,,2025-11-18 09:35:05.801339 UTC,true,true,,9ee5d967-c061-41ac-8962-f8faa9b2bdd8,,-8.16756,-34.94459
"23522",12006e98-41a9-4bae-a432-3d7d52410cb5,,"4373",true,Asinha do Tonho,Entrada,Asinha do Tonho,POINT(-34.9201322635135 -8.01335206525605),2025-11-18 07:12:53.298744 UTC,,2025-11-18 09:35:05.801339 UTC,true,true,,1a1f978e-284e-4771-84ac-3406648fbf04,,-8.01335,-34.92013
"23206",c490a35c-1595-4c37-8c19-598228098433,,"4373",true,Assaí Atacadista,Entrada,Assaí Atacadista,POINT(-34.9357784139402 -8.07791704658606),2025-11-18 07:12:53.298744 UTC,,2025-11-18 09:35:05.801339 UTC,true,true,,28546a02-e935-441d-876c-f3abf5933bd5,,-8.07792,-34.93578
"23300",3444393d-6ec3-4b86-a442-c955644172ad,,"4373",true,Assaí Atacadista,Entrada,Assaí Atacadista,POINT(-34.9054221479374 -8.05967680743243),2025-11-18 07:12:53.298744 UTC,,2025-11-18 09:35:05.801339 UTC,true,true,,eb239285-2f52-4317-9e23-19434c53e2eb,,-8.05968,-34.90542
"23317",dc551b32-5282-4d78-9cff-9f0340b62eb9,,"4373",true,Assaí Atacadista,Entrada,,POINT(-34.9188566458583 -8.17087575768287),2025-11-18 07:12:53.298744 UTC,,2025-11-18 09:35:05.801339 UTC,true,true,,eed1efb4-0e6c-4454-b431-2f1977b78a28,,-8.17088,-34.91886
"23261",24a17fcf-1164-47e4-8d69-7ae804803a1d,,"4373",true,Assaí Atacadista,Entrada,Assaí Atacadista,POINT(-34.8951207147937 -7.91822098328591),2025-11-18 07:12:53.298744 UTC,,2025-11-18 09:35:05.801339 UTC,true,true,,fcd01273-4706-41cb-b5da-0df53626e856,,-7.91822,-34.89512
"23200",97641da2-f84a-412d-94a4-d85a02162a50,,"4373",true,Assaí Atacadista,Entrada,,POINT(-34.9112969844688 -8.10105873449554),2025-11-18 07:12:53.298744 UTC,,2025-11-18 09:35:05.801339 UTC,true,true,,54b78bab-8ae2-4950-9604-215bed607e6d,,-8.10106,-34.91130
"23207",5efdad39-5133-442c-a019-68cb72148964,,"4373",true,Assaí Atacadista,Assaí Atacadista,Assaí Atacadista,POINT(-34.9357896159317 -8.0779469185633),2025-11-18 07:12:53.298744 UTC,2025-11-13 14:30:04.654818 UTC,2025-11-18 09:35:05.801339 UTC,false,true,,28546a02-e935-441d-876c-f3abf5933bd5,,-8.07795,-34.93579
"23525",653b58dd-ecef-477a-b4f3-740dfe0e86e6,,"4373",true,Assaí Atacadista,Entrada,Assaí Atacadista,POINT(-34.9716417 -8.0195883),2025-11-18 07:12:53.298744 UTC,,2025-11-18 09:35:05.801339 UTC,true,true,,6704b614-ea46-4303-8c66-10e9dfcc669c,,-8.01959,-34.97164
"23256",e0ce55bf-65fb-4b71-bd07-9adc90a0cbfe,,"4373",true,Assaí Atacadista,Entrada,,POINT(-34.8892898928245 -8.10424849707388),2025-11-18 07:12:53.298744 UTC,,2025-11-18 09:35:05.801339 UTC,true,true,,970abded-1f93-4f0a-a51d-57bfdfbfbb28,,-8.10425,-34.88929
"23320",ecd39be8-0b53-43ff-b48e-630abe2bccb7,,"4373",true,Assaí Atacadista - Peixinhos,Entrada,NULAssaí Atacadista - PeixinhosL,POINT(-34.8789463237909 -8.00814406605619),2025-11-18 07:12:53.298744 UTC,,2025-11-18 09:35:05.801339 UTC,true,true,,a5f8f553-9c8e-4092-a631-02c2cb4bec0b,,-8.00814,-34.87895
"23313",0a40092e-451e-43c3-a4f5-8022b6a66fe5,,"4373",true,Atacado Dos Presentes,Entrada,,POINT(-34.9130878480493 -8.1199098951729),2025-11-18 07:12:53.298744 UTC,,2025-11-18 09:35:05.801339 UTC,true,true,,686e5337-5127-4e8a-b71c-f5da40667055,,-8.11991,-34.91309
"23367",34ea53ff-3614-4937-9a10-e8f8dc357475,,"4373",true,Atacado dos Presentes,Entrada,Atacado dos Presentes,POINT(-34.8854781081081 -8.06022047475107),2025-11-18 07:12:53.298744 UTC,,2025-11-18 09:35:05.801339 UTC,true,true,,b3550704-3eaa-4bf6-87c5-41f3262632c9,,-8.06022,-34.88548
"23557",2257b530-435d-4795-91c8-092560669350,,"4373",true,Atacadão - Camaragibe,Entrada,,POINT(-35.0059963143193 -8.02006716744025),2025-11-18 07:12:53.298744 UTC,,2025-11-18 09:35:05.801339 UTC,true,true,,9d5ccefc-208c-461c-b352-0322cffe49d8,,-8.02007,-35.00600
"23338",4ad24637-ae74-4a05-a4b5-a302201bb8e1,,"4373",true,Atacadão - Iputinga,Entrada,Atacadão - Iputinga,POINT(-34.9439951920341 -8.02911383268137),2025-11-18 07:12:53.298744 UTC,,2025-11-18 09:35:05.801339 UTC,true,true,,88ae36b8-0b54-4142-8344-610f29b9b747,,-8.02911,-34.94400
"23169",78ff15a1-4813-4f99-a460-5a2517866ec1,,"4373",true,Atacadão - Olinda,Entrada,,POINT(-34.8580888835993 -8.01147043917557),2025-11-18 07:12:53.298744 UTC,,2025-11-18 09:35:05.801339 UTC,true,true,,b5bcb1c9-e607-48f5-81f5-21abc9d63ad2,,-8.01147,-34.85809
"23514",55820582-c839-46c2-b357-1b63f66fc71e,,"4373",true,Atacadão - Olinda Casa Caiada,Entrada,,POINT(-34.8352594352251 -7.97717003427454),2025-11-18 07:12:53.298744 UTC,,2025-11-18 09:35:05.801339 UTC,true,true,,e8d4e15f-d08d-4834-b6d7-1fe7155789fa,,-7.97717,-34.83526
"23273",6b730e73-96f8-436c-9de5-870f1c1c14d9,,"4373",true,Atacadão - Paulista,Entrada,Atacadão - Paulista,POINT(-34.8768136842105 -7.9475031970128),2025-11-18 07:12:53.298744 UTC,,2025-11-18 09:35:05.801339 UTC,true,false,,4f647fce-170f-4b93-b435-0f3a28e54ba3,,-7.94750,-34.87681
"23226",0db83f2c-d872-4a38-a666-5aff4aee7995,,"4373",true,Atacadão - Prazeres,Atacadão - Prazeres,Atacadão - Prazeres,POINT(-34.920898182788 -8.16629639402561),2025-11-18 07:12:53.298744 UTC,2025-11-13 14:30:04.654818 UTC,2025-11-18 09:35:05.801339 UTC,false,true,,50314f49-70dc-45cc-adf0-5ee4cb651e1b,,-8.16630,-34.92090
"23225",ecc00edd-3884-4359-8196-a4e3cb21b7ba,,"4373",true,Atacadão - Prazeres,Entrada,Atacadão - Prazeres,POINT(-34.9209149857752 -8.16633933499289),2025-11-18 07:12:53.298744 UTC,,2025-11-18 09:35:05.801339 UTC,true,true,,50314f49-70dc-45cc-adf0-5ee4cb651e1b,,-8.16634,-34.92091
"23271",015d199e-e422-4cb6-95bd-9f8e81fd998a,,"4373",true,Atacadão - Recife Avenida Recife,Entrada,,POINT(-34.9306008837241 -8.08900100786254),2025-11-18 07:12:53.298744 UTC,,2025-11-18 09:35:05.801339 UTC,true,true,,bc0d8fff-5a6c-4632-a695-7c765deb9242,,-8.08900,-34.93060
"23160",00fc4cf0-de1f-4fc2-8135-9f8e0947bf62,,"4373",true,Atacadão - Recife Boa Viagem,Entrada,,POINT(-34.9106375478765 -8.1239586213907),2025-11-18 07:12:53.298744 UTC,,2025-11-18 09:35:05.801339 UTC,true,true,,a7973c9d-28ea-49a3-9131-6d307aa43da8,,-8.12396,-34.91064
"23470",82d08cc0-e51b-43f1-99f4-044381d31c10,,"4373",true,Atacarejo Miranda,Entrada,Atacarejo Miranda,POINT(-34.8819128129445 -7.94164480796586),2025-11-18 07:12:53.298744 UTC,,2025-11-18 09:35:05.801339 UTC,true,false,,52b41a76-c8b5-4334-94af-6d67ee012904,,-7.94164,-34.88191
"23506",2c7853af-5d86-46bb-bdaa-dedd32187625,,"4373",true,Bar Vitória,Entrada,Bar Vitória,POINT(-34.9281974928876 -8.15909933499289),2025-11-18 07:12:53.298744 UTC,,2025-11-18 09:35:05.801339 UTC,true,false,,387720ef-29b4-4697-8087-994b6bd40d12,,-8.15910,-34.92820
"23203",e21a8741-c173-4d26-945e-5452f3686cae,,"4373",true,Bar do Cuscuz,Bar do Cuscuz,Bar do Cuscuz,POINT(-34.9013263815789 -8.11890772403983),2025-11-18 07:12:53.298744 UTC,2025-11-13 14:30:04.654818 UTC,2025-11-18 09:35:05.801339 UTC,false,true,,e140c9e1-103a-4f12-bc9a-1c6367d10209,,-8.11891,-34.90133
"23202",1b0a499b-d2fc-4c31-ba08-282754f92034,,"4373",true,Bar do Cuscuz,Entrada,Bar do Cuscuz,POINT(-34.9013263815789 -8.11888998755334),2025-11-18 07:12:53.298744 UTC,,2025-11-18 09:35:05.801339 UTC,true,true,,e140c9e1-103a-4f12-bc9a-1c6367d10209,,-8.11889,-34.90133
"23775",1864f963-2b82-4655-8bab-8d06357d9d84,,"4373",true,Bar do Mario,Entrada,,POINT(-34.9103734800111 -8.01906568187777),2025-11-06 09:59:09.941147 UTC,,2025-11-13 05:17:20.508846 UTC,true,true,,9ab530f1-5e61-4849-852f-f9d2955094c1,,-8.01907,-34.91037
"23293",690f56d4-ef65-4827-ba7b-ab2e97205bc9,,"4373",true,Basílica de Nossa Senhora do Carmo,Entrada,Basílica de Nossa Senhora do Carmo,POINT(-34.8792596319346 -8.06605551831437),2025-11-18 07:12:53.298744 UTC,,2025-11-18 09:35:05.801339 UTC,true,true,,32ae19e3-a44b-4b9f-8d43-64659d0ba4ff,,-8.06606,-34.87926
"23520",ee0f90b6-6729-411a-b1b2-bd36bfe340e6,,"4373",true,Beberibe Center,Entrada,,POINT(-34.8952202991656 -7.99971336042519),2025-11-18 07:12:53.298744 UTC,,2025-11-18 09:35:05.801339 UTC,true,true,,3c3f76c6-9a18-4d34-8033-5ae53750f5a5,,-7.99971,-34.89522
"23519",101af088-7be9-4a66-9739-a0047e76db09,,"4373",true,Boi e Brasa Churrascaria Candeias,Entrada,,POINT(-34.9187031891198 -8.19241933650649),2025-11-18 07:12:53.298744 UTC,,2025-11-18 09:35:05.801339 UTC,true,true,,011a798c-9807-4a5b-873e-5d02b7ade2e6,,-8.19242,-34.91870
"23568",2861317b-803a-449f-a252-d7db48f57e2d,,"4373",true,Boi e Brasa Churrascaria Ilha do Retiro,Entrada,Boi e Brasa Churrascaria Ilha do Retiro,POINT(-34.9043614351557 -8.06144413053264),2025-11-18 07:12:53.298744 UTC,,2025-11-18 09:35:05.801339 UTC,true,true,,df86c537-13f5-497c-a305-d0e4f6dd29d3,,-8.06144,-34.90436
"23309",93e88180-3c1d-4b9c-b385-eb168a18bd9e,,"4373",true,Boi e Brasa Churrascaria Olinda,Entrada,,POINT(-34.8605241258938 -8.02493222291945),2025-11-18 07:12:53.298744 UTC,,2025-11-18 09:35:05.801339 UTC,true,true,,49ec34dc-caf1-4158-910d-7ec3ac8c767b,,-8.02493,-34.86052
"23216",2edf3184-e451-41e5-a0fc-fdd7cdb8934d,,"4373",true,Boteco Me Confessando Bar,Entrada,,POINT(-34.9205228314857 -8.1411397250678),2025-11-18 07:12:53.298744 UTC,,2025-11-18 09:35:05.801339 UTC,true,true,,9630f2ce-5753-4756-8b35-8083beb56559,,-8.14114,-34.92052
"23509",8a5be16d-cef1-4293-8099-14a73f58a48d,,"4373",true,Boteco Qual a Boa,Entrada,,POINT(-34.9416136739214 -8.05491045183854),2025-11-18 07:12:53.298744 UTC,,2025-11-18 09:35:05.801339 UTC,true,true,,707208c3-e8cc-4f36-a220-a3f89eeb9edb,,-8.05491,-34.94161
"23244",322ba61b-e5a3-45ce-8485-b698a3e0d485,,"4373",true,Boteco do Bêu,Entrada,Boteco do Bêu,POINT(-34.88748014 -8.02099748),2025-12-05 15:53:47.642852 UTC,,2025-12-09 05:09:21.667234 UTC,true,true,,60a513dc-4a9e-4baf-9675-3b41c9872447,,-8.02100,-34.88748
"23149",a2867536-7275-4ffc-909c-7c1099d23178,,"4373",true,Buraco da Véia,Entrada,,POINT(-34.8766379038229 -8.0803816578475),2025-11-18 07:12:53.298744 UTC,,2025-11-18 09:35:05.801339 UTC,true,true,,ce6e042b-7f1d-426e-97c8-8cb88387b443,,-8.08038,-34.87664
"23033",456c898e-0562-44b8-afca-1db3ddc7f783,,"4373",true,CEASA Pernambuco,CEASA rotatória,CEASA Pernambuco,POINT(-34.945310387 -8.071541919),2025-11-18 07:12:53.298744 UTC,2025-09-05 06:39:36.601846 UTC,2025-11-18 09:35:05.801339 UTC,true,false,,,,-8.07154,-34.94531
"23032",ea04e09a-7e64-4354-bcf3-9cdfd4a5fc1b,,"4373",true,CEASA Pernambuco,Entrada (R. Jundiaí),,POINT(-34.9455662707917 -8.07370853036096),2025-11-18 07:12:53.298744 UTC,2025-09-05 06:39:36.601846 UTC,2025-11-18 09:35:05.801339 UTC,true,false,,,,-8.07371,-34.94557
"23034",08aad1fe-015d-4f05-bfb3-9a6277cb7b14,,"4373",true,CEASA Pernambuco,Descontao CEASA,CEASA Pernambuco,POINT(-34.9467379944983 -8.07375154633691),2025-11-18 07:12:53.298744 UTC,2025-09-05 06:39:36.601846 UTC,2025-11-18 09:35:05.801339 UTC,true,false,,,,-8.07375,-34.94674
"23571",dcb50e33-b164-4a8d-bc6a-07d67f1ad895,,"4373",true,CEPLANC - Central de Plantões da Capital,Entrada,CEPLANC - Central de Plantões da Capital,POINT(-34.8795142022567 -8.03858560820508),2025-11-18 07:12:53.298744 UTC,,2025-11-18 09:35:05.801339 UTC,true,true,,1ba95758-4bc0-4ebd-8bf5-8f186db24042,,-8.03859,-34.87951
"23103",8b4927f5-d4ef-49ba-b0ff-71f094fc7fcc,,"4373",true,CISAM - UPE - Unidade Hospitalar,CISAM - UPE - Unidade Hospitalar,NUCISAM - UPE - Unidade HospitalarLL,POINT(-34.8880738371266 -8.03795083036984),2025-11-18 07:12:53.298744 UTC,2025-11-13 14:30:04.654818 UTC,2025-11-18 09:35:05.801339 UTC,false,true,,4b7c6fe0-9299-43f8-9a0f-19c7edee488d,,-8.03795,-34.88807
"23102",48b6d9a4-406c-4905-aab7-2b48496189e2,,"4373",true,CISAM - UPE - Unidade Hospitalar,Entrada,CISAM - UPE - Unidade Hospitalar,POINT(-34.8880999751067 -8.03797136735419),2025-11-18 07:12:53.298744 UTC,,2025-11-18 09:35:05.801339 UTC,true,true,,4b7c6fe0-9299-43f8-9a0f-19c7edee488d,,-8.03797,-34.88810
"23462",9d903073-0322-4d78-9077-d942d06e98de,,"4373",true,COMPAZ - Dom Helder Câmara,Entrada,COMPAZ - Dom Helder Câmara,POINT(-34.8956021230441 -8.07360982219061),2025-11-18 07:12:53.298744 UTC,,2025-11-18 09:35:05.801339 UTC,true,true,,63071f34-6e19-49f1-b534-3c109563b3d4,,-8.07361,-34.89560
"23287",66ecb669-13e3-4a22-abf0-e1eb904d3a83,,"4373",true,COMPAZ IBURA - Paulo Freire,Entrada,,POINT(-34.9457242275231 -8.11861249448088),2025-11-18 07:12:53.298744 UTC,,2025-11-18 09:35:05.801339 UTC,true,true,,8f654090-81c0-4d7c-ab14-9719ab9baee6,,-8.11861,-34.94572
"23531",fc537e85-4f77-4026-946c-d97ce56cc032,,"4373",true,COPE Centro Oftalmológico de Pernambuco,Entrada,COPE Centro Oftalmológico de Pernambuco,POINT(-34.894085472973 -8.05571434121621),2025-11-18 07:12:53.298744 UTC,,2025-11-18 09:35:05.801339 UTC,true,false,,78fab3bd-655f-4dfd-907f-4b2945385b88,,-8.05571,-34.89409
"23476",8e1e1a27-c723-4ab9-90f0-16303d9224e6,,"4373",true,Caixa,Avenida Bernardo Vieira de Melo 941,Caixa,POINT(-34.9145928129445 -8.16726165629446),2025-11-18 07:12:53.298744 UTC,,2025-11-18 09:35:05.801339 UTC,true,true,,f859b1c1-4c60-431a-a571-ca69bbf6fd61,,-8.16726,-34.91459
"23350",d11d128d-cb14-4d09-b10e-9cdb08e47db6,,"4373",true,Caixa Econômica Federal,Entrada,Caixa Econômica Federal,POINT(-34.9045202809388 -8.07976983463727),2025-11-18 07:12:53.298744 UTC,,2025-11-18 09:35:05.801339 UTC,true,true,,eb3da46a-6645-4d3e-a8fe-cde202e467e3,,-8.07977,-34.90452
"23245",d99865bf-e9cc-47e5-aefe-b2b6e3d0f65a,,"4373",true,Caixa Econômica Federal,Entrada,Caixa Econômica Federal,POINT(-34.918144072724 -8.02414865753912),2025-11-18 07:12:53.298744 UTC,,2025-11-18 09:35:05.801339 UTC,true,true,,34b9886d-f465-427f-a949-b72455deb720,,-8.02415,-34.91814
"23249",3522395b-6908-49d2-9e8d-637cc22a5530,,"4373",true,Caixa Econômica Federal,Entrada,Caixa Econômica Federal,POINT(-34.89027693101 -8.03761226351351),2025-11-18 07:12:53.298744 UTC,,2025-11-18 09:35:05.801339 UTC,true,true,,1e0e0320-85b8-44b4-ad59-0608ce915f86,,-8.03761,-34.89028
"23526",701e3343-1faf-4d1a-90a6-f9fa1190e7d4,,"4373",true,Caixa Econômica Federal - Prazeres,Entrada,Caixa Econômica Federal - Prazeres,POINT(-34.9322028129445 -8.16470318456614),2025-11-18 07:12:53.298744 UTC,,2025-11-18 09:35:05.801339 UTC,true,true,,e7b9457d-e906-489e-82e9-35ffa6a78d23,,-8.16470,-34.93220
"23471",7effb838-9f36-4fc1-aa5d-7ad9a4d0bf86,,"4373",true,Caldinho do Biu,Entrada,Caldinho do Biu,POINT(-34.9050341305121 -8.02287445679232),2025-11-18 07:12:53.298744 UTC,,2025-11-18 09:35:05.801339 UTC,true,true,,7057f611-f241-41bf-9eb6-b0bd80628fcf,,-8.02287,-34.90503
"23108",b0d36ad8-242b-434f-9094-e8b087682b59,,"4373",true,Camará Shopping,Camará Shopping,Camará Shopping,POINT(-34.9765438157895 -8.01584084637269),2025-11-18 07:12:53.298744 UTC,,2025-11-18 09:35:05.801339 UTC,false,true,,8ab3d8fd-8502-4ac8-bea4-15c6a50caa88,,-8.01584,-34.97654
"272",a39608f4-96a3-46bc-90a3-b2ef298c91e9,,"4373",true,Camará Shopping,Parada 2,Camará Shopping,POINT(-34.976545 -8.01582),2025-11-18 07:12:53.298744 UTC,,2025-11-18 09:35:05.801339 UTC,true,false,,8ab3d8fd-8502-4ac8-bea4-15c6a50caa88,,-8.01582,-34.97655
"273",3f98653e-c840-4e3c-acf2-bad1eac13d3e,,"4373",true,Camará Shopping,Parada 1,Camará Shopping,POINT(-34.977594 -8.015232),2025-11-18 07:12:53.298744 UTC,,2025-11-18 09:35:05.801339 UTC,true,false,,8ab3d8fd-8502-4ac8-bea4-15c6a50caa88,,-8.01523,-34.97759
"23457",6726e955-5ad7-40a2-b0e9-517437bf6fa8,,"4373",true,Campo do Onze,Entrada,Campo do Onze,POINT(-34.87848689367 -8.04075065256046),2025-11-18 07:12:53.298744 UTC,,2025-11-18 09:35:05.801339 UTC,true,true,,ac51b571-c0de-4907-8ac9-db0f14ac90ad,,-8.04075,-34.87849
"23561",540712c9-e8a8-45af-8e8a-161fda3fc1f4,,"4373",true,Capitão Gancho Pizzaria,Entrada,Capitão Gancho Pizzaria,POINT(-34.9022570465861 -8.1290740851707),2025-11-18 07:12:53.298744 UTC,,2025-11-18 09:35:05.801339 UTC,true,false,,66305046-6505-43e0-806f-ac1acf00761e,,-8.12907,-34.90226
"23489",a1e62a63-468f-4d07-8953-4c7b1cdb68be,,"4373",true,Carrefour Boa Viagem,Entrada,,POINT(-34.8958419929692 -8.11584642757903),2025-11-18 07:12:53.298744 UTC,,2025-11-18 09:35:05.801339 UTC,true,true,,fc2d9811-9a5a-4930-85bd-5f0aa448dfa4,,-8.11585,-34.89584
"23272",25009b2b-b872-4974-bf1c-292061c26666,,"4373",true,Carrefour Hipermercado,Entrada,,POINT(-34.9098297690838 -8.04004381825949),2025-11-18 07:12:53.298744 UTC,,2025-11-18 09:35:05.801339 UTC,true,true,,fcc4ea90-8cb4-4e68-ba39-69653853c4b1,,-8.04004,-34.90983
"23361",78feba11-1583-441a-9281-551a8b64ebd6,,"4373",true,Carrefour Hipermercado,Entrada,Carrefour Hipermercado,POINT(-34.9293178645092 -8.09756551831437),2025-11-18 07:12:53.298744 UTC,,2025-11-18 09:35:05.801339 UTC,true,true,,bdf12ebc-59f2-4d75-904a-cb0d55b6a1f1,,-8.09757,-34.92932
"23565",6d394f8b-3ca0-4f32-ba3d-191c456b1635,,"4373",true,Cartório de Afagados,Entrada,Cartório de Afagados,POINT(-34.9077059885759 -8.08019801311236),2025-11-18 07:12:53.298744 UTC,,2025-11-18 09:35:05.801339 UTC,true,true,,0300fb0c-f4cf-4972-b513-cf4b4546312b,,-8.08020,-34.90771
"23157",e8ab9729-8277-4beb-9702-b40b01411d73,,"4373",true,Casa Pio Calçados LJ 34 - Santo Antônio,Entrada desde el Av.  Nossa Sra. do Carmo,,POINT(-34.8786748746993 -8.0658336396767),2025-11-18 07:12:53.298744 UTC,,2025-11-18 09:35:05.801339 UTC,true,true,,64ea6ae0-2d8f-4f5d-b17c-1bf8b3fb109b,,-8.06583,-34.87867
"23158",6e05be79-c610-4591-9b9b-dfc0a97258a3,,"4373",true,Casa Pio Calçados LJ 34 - Santo Antônio,Entrada desde el Av.  Dantas Barreto,,POINT(-34.8787066240833 -8.06557568519373),2025-11-18 07:12:53.298744 UTC,,2025-11-18 09:35:05.801339 UTC,true,false,,64ea6ae0-2d8f-4f5d-b17c-1bf8b3fb109b,,-8.06558,-34.87871
"23250",3db36e3e-7014-4b51-8aa7-cea41e36c2fe,,"4373",true,Cavaleiro,Entrada,,POINT(-34.9725435482224 -8.0940277304472),2025-11-18 07:12:53.298744 UTC,,2025-11-18 09:35:05.801339 UTC,true,true,,f693e3ea-30a5-4b50-bfbf-37b7b38115f1,,-8.09403,-34.97254
"23258",295b9a43-204b-4031-bd15-1351e095ba3d,,"4373",true,Cavaleiro Express,Entrada,,POINT(-34.9698143044592 -8.09053003591176),2025-11-18 07:12:53.298744 UTC,,2025-11-18 09:35:05.801339 UTC,true,true,,b546360b-02fd-483d-a78f-d20595914e3e,,-8.09053,-34.96981
"23515",f0541ff0-37d6-46fa-9f26-4bd90f903a5b,,"4373",true,Cemitério Parque das Flores,Entrada,,POINT(-34.9602031179767 -8.08201388615539),2025-11-18 07:12:53.298744 UTC,,2025-11-18 09:35:05.801339 UTC,true,true,,d3906d13-d845-4e90-b3e0-1f4f82823072,,-8.08201,-34.96020
"23453",8497115a-1c2e-4f01-af8f-a5504d9dd935,,"4373",true,Cemitério Público de Águas Compridas,Entrada,Cemitério Público de Águas Compridas,POINT(-34.8948789260313 -7.9976662082148),2025-11-18 07:12:53.298744 UTC,,2025-11-18 09:35:05.801339 UTC,true,true,,0f6adc06-44b2-4a3d-8499-ef27a34cad01,,-7.99767,-34.89488
"23159",63df9818-faf9-40dc-a2e8-fb15ba44abb9,,"4373",true,Cemitério de Santo Amaro,Entrada,,POINT(-34.8836752583145 -8.05045188287978),2025-11-18 07:12:53.298744 UTC,,2025-11-18 09:35:05.801339 UTC,true,true,,069a5590-45f9-48f2-84e0-c72aff2ccc66,,-8.05045,-34.88368
"23187",413b4d0b-24d1-4ee9-9499-086da3098d7e,,"4373",true,Center Doces,Center Doces,Center Doces,POINT(-34.8801456009957 -8.06793759601707),2025-11-18 07:12:53.298744 UTC,2025-11-13 14:30:04.654818 UTC,2025-11-18 09:35:05.801339 UTC,false,true,,b5434c7a-6d0e-4b73-afa5-fef12bbb8e80,,-8.06794,-34.88015
"23186",1abf2871-97f6-4f0a-98a7-bc897558550f,,"4373",true,Center Doces,Entrada,Center Doces,POINT(-34.8801371995021 -8.0679263940256),2025-11-18 07:12:53.298744 UTC,,2025-11-18 09:35:05.801339 UTC,true,true,,b5434c7a-6d0e-4b73-afa5-fef12bbb8e80,,-8.06793,-34.88014
"23316",bd6735f5-bb5f-4ed2-babe-8125882ee0f0,,"4373",true,Central da Picanha - Rodízio de Carnes,Entrada,,POINT(-34.8925771619297 -8.0348882651862),2025-11-18 07:12:53.298744 UTC,,2025-11-18 09:35:05.801339 UTC,true,true,,971868e5-8dc4-4059-a048-de94f5383bf5,,-8.03489,-34.89258
"23224",72b73066-c930-44c0-b6c3-4736aff1e437,,"4373",true,Centro Comunitário da Paz - Compaz Governador Eduardo Campos,Centro Comunitário da Paz - Compaz Governador Eduardo Campos,NULLCentro Comunitário da Paz - Compaz Governador Eduardo Campos,POINT(-34.9029810864154 -8.01038923186344),2025-11-18 07:12:53.298744 UTC,2025-11-13 14:30:04.654818 UTC,2025-11-18 09:35:05.801339 UTC,false,true,,ecf7b0d6-f2f1-4b10-bc1c-8f6b75236c19,,-8.01039,-34.90298
"23223",b119ed98-2b8c-4c87-930b-9e98441c5d20,,"4373",true,Centro Comunitário da Paz - Compaz Governador Eduardo Campos,Entrada,Centro Comunitário da Paz - Compaz Governador Eduardo Campos,POINT(-34.9029530814367 -8.01038736486487),2025-11-18 07:12:53.298744 UTC,,2025-11-18 09:35:05.801339 UTC,true,true,,ecf7b0d6-f2f1-4b10-bc1c-8f6b75236c19,,-8.01039,-34.90295
"23450",22f58edd-14c8-4f64-9731-724a3131edf7,,"4373",true,Centro Médico Sen. José Ermírio de Moraes,Entrada,Centro Médico Sen. José Ermírio de Moraes,POINT(-34.9254439029161 -8.02918133445945),2025-11-18 07:12:53.298744 UTC,,2025-11-18 09:35:05.801339 UTC,true,true,,d71fcb6e-3411-4696-99c0-fca82076ac9c,,-8.02918,-34.92544
"23099",e76b9e59-ba85-4f38-b0e5-1c003d20c945,,"4373",true,Centro da Moda,Centro da Moda,Centro da Moda,POINT(-34.8653471372688 -8.01778426209104),2025-11-18 07:12:53.298744 UTC,2025-11-13 14:30:04.654818 UTC,2025-11-18 09:35:05.801339 UTC,false,true,,d083817b-cdea-4e1c-92b0-26c56112ef14,,-8.01778,-34.86535
"23098",e1215ef1-3ecb-4654-93c0-5381e8f9563b,,"4373",true,Centro da Moda,Entrada,Centro da Moda,POINT(-34.8653732752489 -8.01777866109531),2025-11-18 07:12:53.298744 UTC,,2025-11-18 09:35:05.801339 UTC,true,true,,d083817b-cdea-4e1c-92b0-26c56112ef14,,-8.01778,-34.86537
"23227",9ae65a7a-996f-44ed-8c59-092d2786fd5e,,"4373",true,Centro de Convenções de Pernambuco,Entrada 1,Centro de Convenções de Pernambuco,POINT(-34.8709733623756 -8.0309804409673),2025-11-18 07:12:53.298744 UTC,,2025-11-18 09:35:05.801339 UTC,true,false,,5ffba5d5-02c8-4b03-8863-85c88b4865f0,,-8.03098,-34.87097
"23229",2b586fa7-6d69-44ed-8de9-9cfe6919d185,,"4373",true,Centro de Convenções de Pernambuco,Entrada 2,Centro de Convenções de Pernambuco,POINT(-34.8721551724751 -8.0319344772404),2025-11-18 07:12:53.298744 UTC,,2025-11-18 09:35:05.801339 UTC,true,false,,5ffba5d5-02c8-4b03-8863-85c88b4865f0,,-8.03193,-34.87216
"23228",696267c3-4703-45f9-89a4-67e1de194abc,,"4373",true,Centro de Convenções de Pernambuco,Centro de Convenções de Pernambuco,NUCentro de Convenções de PernambucoLL,POINT(-34.8709453573969 -8.03097390647228),2025-11-18 07:12:53.298744 UTC,,2025-11-18 09:35:05.801339 UTC,false,true,,5ffba5d5-02c8-4b03-8863-85c88b4865f0,,-8.03097,-34.87095
"20780",1aa8eb80-3e98-4e80-b781-cb228373ca6c,,"4373",true,Centro de Convenções de Pernambuco,Entrada,Centro de Convenções de Pernambuco,POINT(-34.8706641443945 -8.03162152111116),2025-11-18 07:12:53.298744 UTC,2025-06-27 08:56:50.534828 UTC,2025-11-18 09:35:05.801339 UTC,true,false,,5ffba5d5-02c8-4b03-8863-85c88b4865f0,,-8.03162,-34.87066
"23239",01571dac-e85b-4c51-a07e-a2fc59c98fce,,"4373",true,Classic Hall,Classic Hall,Classic Hall,POINT(-34.8703178431721 -8.0347807521337),2025-11-18 07:12:53.298744 UTC,2025-11-13 14:30:04.654818 UTC,2025-11-18 09:35:05.801339 UTC,false,true,,9e827471-e664-4e96-bd9c-e7f5ca6d27aa,,-8.03478,-34.87032
"23238",a303f2a6-df60-44ca-a0d0-b56f25df81a4,,"4373",true,Classic Hall,Entrada,Classic Hall,POINT(-34.8703299786629 -8.03479475462303),2025-11-18 07:12:53.298744 UTC,,2025-11-18 09:35:05.801339 UTC,true,true,,9e827471-e664-4e96-bd9c-e7f5ca6d27aa,,-8.03479,-34.87033
"23358",b482a904-4f36-41ea-b747-09723b4d1cb0,,"4373",true,Clube Bela Vista,Entrada,Clube Bela Vista,POINT(-34.8958986699858 -8.00764489064722),2025-11-18 07:12:53.298744 UTC,,2025-11-18 09:35:05.801339 UTC,true,true,,8cc16b21-fecc-41de-b6c9-8399544f7d33,,-8.00764,-34.89590
"23330",a55c2f5f-f317-4665-a8f2-18a3128f2ee7,,"4373",true,Clube Ferroviário de Afogados,Entrada,Clube Ferroviário de Afogados,POINT(-34.913773465505 -8.07636439900427),2025-11-18 07:12:53.298744 UTC,,2025-11-18 09:35:05.801339 UTC,true,true,,8b923146-1dd2-45df-bb55-79fc67529949,,-8.07636,-34.91377
"23488",a8148aa1-d516-4a0f-a474-ff017152ff9a,,"4373",true,Clube Internacional do Recife,Entrada,,POINT(-34.9040020731353 -8.05859376286668),2025-11-18 07:12:53.298744 UTC,,2025-11-18 09:35:05.801339 UTC,true,true,,aa439fd4-92a2-48ff-a225-d1ec44a5d64d,,-8.05859,-34.90400
"23283",7e4d413f-3f93-4555-a63d-f2cbea1f59fc,,"4373",true,Clube Metrópole,Entrada,,POINT(-34.8915036955778 -8.05937208113868),2025-11-18 07:12:53.298744 UTC,,2025-11-18 09:35:05.801339 UTC,true,true,,d0220539-b9ee-4d9f-ab33-fe393730b3ac,,-8.05937,-34.89150
"23472",14eada6c-1d90-463b-ab70-8f9086b7f8e9,,"4373",true,Clube Português,Entrada,,POINT(-34.8964359110035 -8.04970808129869),2025-11-18 07:12:53.298744 UTC,,2025-11-18 09:35:05.801339 UTC,true,true,,f2fabab2-e5d6-42b5-a211-9470d2c3970b,,-8.04971,-34.89644
"23570",b3ebd686-c32b-494d-b3df-33c60a782986,,"4373",true,Colégio Salesiano Recife,Entrada,Colégio Salesiano Recife,POINT(-34.8930243736177 -8.06083446709249),2025-11-18 07:12:53.298744 UTC,,2025-11-18 09:35:05.801339 UTC,true,true,,495f2dc2-ae2f-48ad-af8f-40052a9e010a,,-8.06083,-34.89302
"23536",257ef1af-a145-4a67-94d1-ef9751d2fdca,,"4373",true,Colônia Futebol Clube,Entrada,,POINT(-34.9617102555727 -8.09541205405268),2025-11-18 07:12:53.298744 UTC,,2025-11-18 09:35:05.801339 UTC,true,true,,cb9366e7-0781-42eb-8d86-eef2f7d93fe9,,-8.09541,-34.96171
"23562",9eb33dba-e1a3-4662-af70-f2c636a4d0bd,,"4373",true,Conchittas Bar,Entrada,Conchittas Bar,POINT(-34.8916897315078 -8.05933140024893),2025-11-18 07:12:53.298744 UTC,,2025-11-18 09:35:05.801339 UTC,true,true,,865bc97a-406a-41d4-8903-52c885341192,,-8.05933,-34.89169
"23349",3e7c7d7f-4492-4711-9f23-87e7d46c98e4,,"4373",true,Condomínio João Paulo II,Entrada,Condomínio João Paulo II,POINT(-34.8899103840683 -8.00768643136557),2025-11-18 07:12:53.298744 UTC,,2025-11-18 09:35:05.801339 UTC,true,true,,7d2d368e-e4e8-46d3-9663-a247d097e965,,-8.00769,-34.88991
"23351",351c8be8-4dba-4f87-8faa-f62ce98dc99f,,"4373",true,Condomínio Parque Janga,Entrada,Condomínio Parque Janga,POINT(-34.8260902355974 -7.92662008490398),2025-11-18 07:12:53.298744 UTC,,2025-11-18 09:35:05.801339 UTC,true,true,,51131ff9-4c1d-44cf-ad24-52ec84d41b0a,,-7.92662,-34.82609
"23255",9f946e3e-5662-490a-9b63-5a6349fb4d19,,"4373",true,Condomínio Recanto Do Sol,Entrada,,POINT(-34.9363692407177 -8.18747954774605),2025-11-18 07:12:53.298744 UTC,,2025-11-18 09:35:05.801339 UTC,true,true,,758caa57-53c6-44f9-98cd-a861bc776485,,-8.18748,-34.93637
"23559",476d1042-4483-48ac-8b67-636581263465,,"4373",true,Conjunto Habitacional Carlos Lamarca,Entrada,,POINT(-34.8557752767661 -7.96399699319444),2025-11-18 07:12:53.298744 UTC,,2025-11-18 09:35:05.801339 UTC,true,true,,62321fe7-cb5f-4b92-a00e-c21fdb42751b,,-7.96400,-34.85578
"23334",d2e139ad-033d-48b6-9866-f28e761fb15c,,"4373",true,Conjunto Residencial Yapoatan,Entrada,Conjunto Residencial Yapoatan,POINT(-34.9667269310099 -8.11890687322191),2025-11-18 07:12:53.298744 UTC,,2025-11-18 09:35:05.801339 UTC,true,true,,3511a597-8a23-4a82-923b-1e70ba3c6289,,-8.11891,-34.96673
"23554",569ede2d-49d8-48dd-a308-44563cbb16cf,,"4373",true,Conjunto praia do janga,Entrada 2,,POINT(-34.8310995697399 -7.93699991562073),2025-11-18 07:12:53.298744 UTC,,2025-11-18 09:35:05.801339 UTC,true,true,,0cb27505-3f56-4342-84ed-5c1f0dd9efe7,,-7.93700,-34.83110
"23553",87737279-90a6-4dcf-9a70-196938bb46c0,,"4373",true,Conjunto praia do janga,Entrada 1,,POINT(-34.8312880284192 -7.93777329363409),2025-11-18 07:12:53.298744 UTC,,2025-11-18 09:35:05.801339 UTC,true,true,,0cb27505-3f56-4342-84ed-5c1f0dd9efe7,,-7.93777,-34.83129
"23020",1f2c65ad-bba9-4a56-93f2-8e1e42a03806,,"4373",true,Cotel,Cotel,,POINT(-34.9225465906894 -7.92851942688588),2025-11-18 07:12:53.298744 UTC,,2025-11-18 09:35:05.801339 UTC,true,true,,14a8e174-615d-46fd-9733-0c7f28f95e17,,-7.92852,-34.92255
"23328",5d31580b-f41f-43f2-b099-e83c3d68f549,,"4373",true,Creche Municipal Sonho do Povo,Entrada,Creche Municipal Sonho do Povo,POINT(-34.9455130689901 -8.11902679054054),2025-11-18 07:12:53.298744 UTC,,2025-11-18 09:35:05.801339 UTC,true,true,,0a64b949-49fa-446a-a187-1c8244e8bbc6,,-8.11903,-34.94551
"23517",5108787b-c0e9-4999-8a78-555ec944ab03,,"4373",true,Cristal Executivo Hotel,Entrada,,POINT(-34.8907446695942 -8.07462021862059),2025-11-18 07:12:53.298744 UTC,,2025-11-18 09:35:05.801339 UTC,true,true,,6fa3bb09-c5cc-4228-923c-81c2f2f25919,,-8.07462,-34.89074
"23523",175edbbd-d42e-4d15-bc62-0ca7beea95d1,,"4373",true,Cristal Hotel II,Entrada,Cristal Hotel II,POINT(-34.8800553449502 -8.00129075791252),2025-11-18 07:12:53.298744 UTC,,2025-11-18 09:35:05.801339 UTC,true,false,,047c9f43-a34e-442b-ab8c-baad4b40012b,,-8.00129,-34.88006
"23368",311bc02b-a399-430e-8345-198c0967cbbd,,"4373",true,DESKONTÃO CEASA,Entrada,DESKONTÃO CEASA,POINT(-34.9466190789474 -8.07384291607397),2025-11-18 07:12:53.298744 UTC,,2025-11-18 09:35:05.801339 UTC,true,true,,a48d526d-a075-42cf-828f-85388069c3cb,,-8.07384,-34.94662
"23230",64cd42ec-abc0-4fdc-bd46-2d2e213a7d66,,"4373",true,DETRAN-PE (sede),Entrada,DETRAN-PE (sede),POINT(-34.9397542087482 -8.03214737375532),2025-11-18 07:12:53.298744 UTC,,2025-11-18 09:35:05.801339 UTC,true,true,,12be9ac3-5938-4cab-a5b1-e4d0971c33db,,-8.03215,-34.93975
"23231",c378d044-17f4-4b81-8c67-a52d21ac1f8e,,"4373",true,DETRAN-PE (sede),DETRAN-PE (sede),DETRAN-PE (sede),POINT(-34.9397280707681 -8.03211003378377),2025-11-18 07:12:53.298744 UTC,2025-11-13 14:30:04.654818 UTC,2025-11-18 09:35:05.801339 UTC,false,true,,12be9ac3-5938-4cab-a5b1-e4d0971c33db,,-8.03211,-34.93973
"23464",43edb097-d5e8-429c-b3d8-da6a173df288,,"4373",true,Defensoria Pública da União,Entrada,Defensoria Pública da União,POINT(-34.8910616109531 -8.05930733997155),2025-11-18 07:12:53.298744 UTC,,2025-11-18 09:35:05.801339 UTC,true,true,,da958ea0-cf9a-4c94-83e3-7c96bc5b0b6e,,-8.05931,-34.89106
"23297",4de85098-2224-4c90-b2e5-9aa1bb47d4e6,,"4373",true,Delegacia do Alto do Pascoal,Entrada,Delegacia do Alto do Pascoal,POINT(-34.9043289260313 -8.01154127222617),2025-11-18 07:12:53.298744 UTC,,2025-11-18 09:35:05.801339 UTC,true,true,,5c019f87-d538-4df2-ab46-3d395a19cf82,,-8.01154,-34.90433
"23451",c77dd684-c7fd-43a4-9d27-4140aceac45f,,"4373",true,Dona Coxa,Entrada,Dona Coxa,POINT(-34.8937422510669 -8.08735567123044),2025-11-18 07:12:53.298744 UTC,2025-11-14 10:06:48.828472 UTC,2025-11-18 09:35:05.801339 UTC,true,true,,44a19b9c-0c06-4f46-afe4-8b5882506f6a,,-8.08736,-34.89374
"23487",c3e8e12c-898e-443d-8752-d2762c60a172,,"4373",true,Du Valle Supermercado,Entrada,,POINT(-34.9694181193004 -8.09094444489222),2025-11-18 07:12:53.298744 UTC,,2025-11-18 09:35:05.801339 UTC,true,true,,e6ceb4c3-6e05-4db2-83c5-525a4bb0b051,,-8.09094,-34.96942
"23541",1e6d716c-140f-49b3-9253-6bf94e15e70a,,"4373",true,Empresarial Charles Darwin,Entrada,,POINT(-34.8964682748825 -8.06538947298232),2025-11-18 07:12:53.298744 UTC,,2025-11-18 09:35:05.801339 UTC,true,true,,aef37ea9-7327-4957-9af2-d2d95928ba8c,,-8.06539,-34.89647
"23516",004594fe-e84f-4da0-9418-32de1619ba64,,"4373",true,Empresarial Renato Dias,Entrada,,POINT(-34.8980510965768 -8.06140196772251),2025-11-18 07:12:53.298744 UTC,,2025-11-18 09:35:05.801339 UTC,true,true,,945580dd-54fa-49d4-ba78-d5cb9a356bcf,,-8.06140,-34.89805
"23485",80fe8194-53e5-4a05-8948-1f28698bd1e8,,"4373",true,Eros Hotel,Entrada,Eros Hotel,POINT(-34.9434864847084 -8.04460309388336),2025-11-18 07:12:53.298744 UTC,,2025-11-18 09:35:05.801339 UTC,true,true,,976f013d-2468-4ba1-bac5-5d9c40da2d11,,-8.04460,-34.94349
"23341",09572c7e-0550-429d-a2f1-bb360aac62ff,,"4373",true,Eros Hotel - Afogados,Entrada,,POINT(-34.9096259910298 -8.0741953714151),2025-11-18 07:12:53.298744 UTC,,2025-11-18 09:35:05.801339 UTC,true,true,,03d4539f-6c3f-46b1-8109-462125e31e57,,-8.07420,-34.90963
"23502",1d4607d1-72be-42ef-8c84-cc024afe478d,,"4373",true,Escola Caio Pereira,Entrada,,POINT(-34.9133336809597 -8.01236961618375),2025-11-18 07:12:53.298744 UTC,,2025-11-18 09:35:05.801339 UTC,true,true,,d1a1c515-29c9-4aaa-adf4-7d138f04c928,,-8.01237,-34.91333
"23474",16955d4c-0b59-48ac-879b-ace69f999ce1,,"4373",true,Escola Gabriela Mistral,Entrada,Escola Gabriela Mistral,POINT(-34.9035851920341 -8.01399845928165),2025-11-18 07:12:53.298744 UTC,,2025-11-18 09:35:05.801339 UTC,true,true,,c6923e24-53f4-4e31-a0b6-31e86dccdb8d,,-8.01400,-34.90359
"23478",ceab131b-520e-4934-bc4c-f067cc92b5e7,,"4373",true,Escola Octávio de Meira Lins,Entrada,Escola Octávio de Meira Lins,POINT(-34.9163258570413 -8.01029654694167),2025-11-18 07:12:53.298744 UTC,,2025-11-18 09:35:05.801339 UTC,true,true,,cd7182aa-2fbf-4ef0-b043-4d525188ceeb,,-8.01030,-34.91633
"23499",2ff691a7-8bdb-4463-a126-2d5c4133f8ed,,"4373",true,Escola Rosa de Magalhães Melo,Entrada,,POINT(-34.9015398453575 -8.01055765030695),2025-11-18 07:12:53.298744 UTC,,2025-11-18 09:35:05.801339 UTC,true,true,,7025267b-da7f-41fb-86ab-07e424318cd0,,-8.01056,-34.90154
"23475",07631897-7192-458e-ab25-f4451e85a1fd,,"4373",true,Escola de Samba Gigantes do Samba,Entrada,Escola de Samba Gigantes do Samba,POINT(-34.8980577240398 -8.02286067745377),2025-11-18 07:12:53.298744 UTC,,2025-11-18 09:35:05.801339 UTC,true,true,,a3ad11ad-638f-402e-8ab1-a90f9fa63895,,-8.02286,-34.89806
"23165",560f322e-c33d-4d73-9104-05f3f0b3fd32,,"4373",true,Espaço Aberto,Entrada,,POINT(-34.9133698343796 -8.11115318338339),2025-11-18 07:12:53.298744 UTC,,2025-11-18 09:35:05.801339 UTC,true,true,,d4d7cb0e-3f37-41ad-9e47-b63074637e1e,,-8.11115,-34.91337
"23776",acec403e-6ff0-4fa9-b840-fda2bcebcb94,,"4373",true,Espetinho do Bolinha,Entrada,,POINT(-34.9037789260149 -8.12102306892823),2025-11-06 09:59:09.941147 UTC,,2025-11-13 05:17:20.508846 UTC,true,true,,1aaa7491-baeb-4052-8878-e78126bb8e37,,-8.12102,-34.90378
"23254",7fda2fdf-89ba-494a-ae79-4a2f62a1613e,,"4373",true,Esposende,Entrada,,POINT(-34.9824046560981 -8.02079990315285),2025-11-18 07:12:53.298744 UTC,,2025-11-18 09:35:05.801339 UTC,true,true,,3d38340d-2ab7-4e5b-b130-f3d6c94f0c50,,-8.02080,-34.98240
"23197",64b6ea7d-1441-4caf-9fdc-23bf5dece13d,,"4373",true,Esposende Calçados,Entrada,,POINT(-34.8801860904512 -7.94016614967969),2025-11-18 07:12:53.298744 UTC,,2025-11-18 09:35:05.801339 UTC,true,true,,67b19d99-f0f3-44e7-98ac-59643f7d3332,,-7.94017,-34.88019
"23209",644deaab-55d5-4061-a8e4-a6c1e907a52d,,"4373",true,Estação Afogados,Estação Afogados,Estação Afogados,POINT(-34.9063777364865 -8.07749230085348),2025-11-18 07:12:53.298744 UTC,2025-11-13 14:30:04.654818 UTC,2025-11-18 09:35:05.801339 UTC,false,true,,e63076b6-ab51-4d8e-bb04-fbc6d4efd5bd,,-8.07749,-34.90638
"23208",24d34f12-12c4-49cb-a506-ab9bd21c034e,,"4373",true,Estação Afogados,Entrada,Estação Afogados,POINT(-34.9063926724751 -8.07749790184921),2025-11-18 07:12:53.298744 UTC,,2025-11-18 09:35:05.801339 UTC,true,true,,e63076b6-ab51-4d8e-bb04-fbc6d4efd5bd,,-8.07750,-34.90639
"23551",bbec9082-20d5-40a7-bb82-d5aea48bfe03,,"4373",true,Estação Antônio Falcão,Entrada,,POINT(-34.9090521212875 -8.10960038137003),2025-11-18 07:12:53.298744 UTC,,2025-11-18 09:35:05.801339 UTC,true,true,,de47c700-51c8-4168-892d-16f05acb45c3,,-8.10960,-34.90905
"23140",b39c6ecb-b75f-4373-aa07-f00b47fb9ae5,,"4373",true,Estação Barro,Entrada,,POINT(-34.9453970891381 -8.08876622636457),2025-11-18 07:12:53.298744 UTC,,2025-11-18 09:35:05.801339 UTC,true,true,,c1f5f53f-0d2d-4960-b4ae-51a242fb4e3d,,-8.08877,-34.94540
"23262",da0d4dad-bb63-4590-ae4c-16219a19bdb6,,"4373",true,Estação Cajueiro Seco,Entrada 1,Estação Cajueiro Seco,POINT(-34.9342833872688 -8.1682690416074),2025-11-18 07:12:53.298744 UTC,,2025-11-18 09:35:05.801339 UTC,true,true,,dbb28741-952c-4f14-adc7-f85ed5fbf499,,-8.16827,-34.93428
"23263",f81113db-7dfe-4673-8f7a-0e0d989bca4c,,"4373",true,Estação Cajueiro Seco,Entrada 2,Estação Cajueiro Seco,POINT(-34.9342553822902 -8.16913532894736),2025-11-18 07:12:53.298744 UTC,,2025-11-18 09:35:05.801339 UTC,true,false,,dbb28741-952c-4f14-adc7-f85ed5fbf499,,-8.16914,-34.93426
"23545",aed7ca0a-aee1-4aa3-a01e-dcd510079b11,,"4373",true,Estação Camaragibe,Entrada,Estação Camaragibe,POINT(-34.9952096488265 -8.02446451458037),2025-11-18 07:12:53.298744 UTC,,2025-11-18 09:35:05.801339 UTC,true,true,,df41564f-cb80-4107-9b68-ddf5391e303c,,-8.02446,-34.99521
"23315",49afda22-b50e-4ffc-ab19-d36adc4678c8,,"4373",true,Estação Jaboatão,Entrada,,POINT(-35.0147295169261 -8.11183085342412),2025-11-18 07:12:53.298744 UTC,,2025-11-18 09:35:05.801339 UTC,true,true,,c8176bdf-8eb7-48d8-9c20-85717295411d,,-8.11183,-35.01473
"23486",6ed0cae3-7339-4cc2-a7d9-9695b0423edc,,"4373",true,Estação Monte dos Guararapes,Entrada,Estação Monte dos Guararapes,POINT(-34.9198732503556 -8.15428850462305),2025-11-18 07:12:53.298744 UTC,,2025-11-18 09:35:05.801339 UTC,true,false,,c9b9f038-9c45-48ca-87db-f77fe01a1ff9,,-8.15429,-34.91987
"23222",38df7cb3-1e27-4740-8095-47f22d47d9b8,,"4373",true,Estação Prazeres,Estação Prazeres,Estação Prazeres,POINT(-34.9269972368421 -8.16129129711949),2025-11-18 07:12:53.298744 UTC,2025-11-13 14:30:04.654818 UTC,2025-11-18 09:35:05.801339 UTC,false,true,,43d3c601-380e-4364-89d4-639e4a5d44a1,,-8.16129,-34.92700
"23221",76e85b9e-c431-4fc5-945c-88885943f6eb,,"4373",true,Estação Prazeres,Entrada,Estação Prazeres,POINT(-34.9269832343528 -8.16130249911095),2025-11-18 07:12:53.298744 UTC,,2025-11-18 09:35:05.801339 UTC,true,true,,43d3c601-380e-4364-89d4-639e4a5d44a1,,-8.16130,-34.92698
"23490",7132cc7e-79f5-47cd-ac5d-ff7786534fe5,,"4373",true,Estação Recife,Entrada,,POINT(-34.884105636813 -8.06803940431754),2025-11-18 07:12:53.298744 UTC,,2025-11-18 09:35:05.801339 UTC,true,true,,f3a9a19f-8cde-45b1-8f10-988d542e914c,,-8.06804,-34.88411
"23547",eb519fb6-6c60-451a-a69a-f7e281dab28c,,"4373",true,Estácio do Recife,Entrada,Estácio do Recife,POINT(-34.9166632965861 -8.06228644381223),2025-11-18 07:12:53.298744 UTC,,2025-11-18 09:35:05.801339 UTC,true,true,,b3f8a787-7128-449d-a445-d99ea0ddec89,,-8.06229,-34.91666
"23211",2de70916-d42c-4cd1-baf3-88975b8fa573,,"4373",true,Estádio José do Rego Maciel (Arruda),Estádio José do Rego Maciel (Arruda),Estádio José do Rego Maciel (Arruda),POINT(-34.8921779231863 -8.02601434477241),2025-11-18 07:12:53.298744 UTC,2025-11-13 14:30:04.654818 UTC,2025-11-18 09:35:05.801339 UTC,false,true,,cb55bbbb-1acb-4345-816b-f33705a21d9f,,-8.02601,-34.89218
"23210",da48b384-8308-467f-b2c4-1636a1fd9575,,"4373",true,Estádio José do Rego Maciel (Arruda),Entrada,Estádio José do Rego Maciel (Arruda),POINT(-34.8921517852063 -8.02600500977952),2025-11-18 07:12:53.298744 UTC,,2025-11-18 09:35:05.801339 UTC,true,true,,cb55bbbb-1acb-4345-816b-f33705a21d9f,,-8.02601,-34.89215
"23527",740948d6-026f-4f47-86e0-202209a9762a,,"4373",true,Extra Mercado,Entrada,Extra Mercado,POINT(-34.8995987322191 -8.12660501866998),2025-11-18 07:12:53.298744 UTC,,2025-11-18 09:35:05.801339 UTC,true,true,,dda324df-15e0-4813-bc87-9c2609d99f1b,,-8.12661,-34.89960
"23336",da648424-10ce-4863-8c84-977417809caa,,"4373",true,FPS - Faculdade Pernambucana de Saúde,Entrada,,POINT(-34.9152610255676 -8.12772318885451),2025-11-18 07:12:53.298744 UTC,,2025-11-18 09:35:05.801339 UTC,true,true,,ea27f044-b913-4476-b9a8-806046fd948e,,-8.12772,-34.91526
"23257",95fd178e-d934-4b04-a30a-c536c761420c,,"4373",true,Feira Livre de Afogados,Entrada,,POINT(-34.9070524 -8.0782491),2025-11-18 07:12:53.298744 UTC,,2025-11-18 09:35:05.801339 UTC,true,true,,97d33dd4-8f1f-43af-aec4-68e56f430415,,-8.07825,-34.90705
"23467",00451683-8158-4db8-8a2e-61df3a2299c3,,"4373",true,Feira de Rio Doce,Entrada,,POINT(-34.836867724999 -7.96412986237253),2025-11-18 07:12:53.298744 UTC,,2025-11-18 09:35:05.801339 UTC,true,true,,70259b36-d892-4429-bc26-70b4d4293411,,-7.96413,-34.83687
"23466",4acfa7c5-4e33-4ade-aa0d-1a16f23148f4,,"4373",true,Feira de Rio Doce,Entrada principal,,POINT(-34.8371147660029 -7.96414515351565),2025-11-18 07:12:53.298744 UTC,,2025-11-18 09:35:05.801339 UTC,true,true,,70259b36-d892-4429-bc26-70b4d4293411,,-7.96415,-34.83711
"23566",da0f3bf7-863c-41c7-b1a9-b9df8fcd237c,,"4373",true,Fiteiro do Douglas,Entrada,Fiteiro do Douglas,POINT(-34.9302463118264 -8.03906839348322),2025-11-18 07:12:53.298744 UTC,,2025-11-18 09:35:05.801339 UTC,true,true,,8ca1d48e-a6ab-4d7a-90ae-4a21c9ec0c39,,-8.03907,-34.93025
"23191",2f0b7cbb-f0c7-4bb4-b31d-6a4243b897b1,,"4373",true,Fundação Altino Ventura,Entrada,Fundação Altino Ventura,POINT(-34.9372489304765 -8.03645376244666),2025-11-18 07:12:53.298744 UTC,,2025-11-18 09:35:05.801339 UTC,true,true,,0e0a2026-551a-4697-bc7a-c8f3415bbd24,,-8.03645,-34.93725
"23192",6685138f-889a-4894-b8b4-4e396fa3dff2,,"4373",true,Fundação Altino Ventura,Fundação Altino Ventura,Fundação Altino Ventura,POINT(-34.9372153245021 -8.03646496443813),2025-11-18 07:12:53.298744 UTC,2025-11-13 14:30:04.654818 UTC,2025-11-18 09:35:05.801339 UTC,false,true,,0e0a2026-551a-4697-bc7a-c8f3415bbd24,,-8.03646,-34.93722
"23569",f76b4d87-4a39-4726-b759-b804ed403649,,"4373",true,Fundação Bradesco,Entrada,Fundação Bradesco,POINT(-34.9685596391007 -8.11455339413038),2025-11-18 07:12:53.298744 UTC,,2025-11-18 09:35:05.801339 UTC,true,true,,4c3f8f2f-25d2-4a00-ad57-aadcf1fc7d65,,-8.11455,-34.96856
"23310",3fb2001a-6d1d-4f1b-a424-1fa1c7950b93,,"4373",true,Fórum Desembargador Henrique Capitulino,Entrada,,POINT(-34.9420686638185 -8.15210974677483),2025-11-18 07:12:53.298744 UTC,,2025-11-18 09:35:05.801339 UTC,true,true,,85f20e95-148a-4e5c-a36e-44170852420c,,-8.15211,-34.94207
"23166",261507d6-aea4-4f9e-a71f-38d7b50406ee,,"4373",true,Fórum Desembargador Rodolfo Aureliano,Entrada,,POINT(-34.894550116624 -8.07097341836215),2025-11-18 07:12:53.298744 UTC,,2025-11-18 09:35:05.801339 UTC,true,true,,a6187edf-f0a0-4d35-ac08-660ec3a83cbd,,-8.07097,-34.89455
"23332",36220630-4822-4a1a-98aa-b27b1cc927ec,,"4373",true,Fórum Lourenço José Ribeiro (Fórum de Olinda),Entrada,,POINT(-34.8595218003997 -8.01266277378915),2025-11-18 07:12:53.298744 UTC,,2025-11-18 09:35:05.801339 UTC,true,true,,8235d9d9-ff8d-4d86-ba6b-c769a71893d7,,-8.01266,-34.85952
"23220",fa857a25-254a-43dc-b5e2-f2945b047f67,,"4373",true,Galeria 910,Galeria 910,Galeria 910,POINT(-34.8808330565434 -8.06805028093883),2025-11-18 07:12:53.298744 UTC,2025-11-13 14:30:04.654818 UTC,2025-11-18 09:35:05.801339 UTC,false,true,,dc2944ac-18dd-44c3-b4cc-10f3cb50a38f,,-8.06805,-34.88083
"23219",d8410cc3-b7fa-401a-a8da-4aa0965e4fe6,,"4373",true,Galeria 910,Entrada,Galeria 910,POINT(-34.8808395910384 -8.06805914918207),2025-11-18 07:12:53.298744 UTC,,2025-11-18 09:35:05.801339 UTC,true,true,,dc2944ac-18dd-44c3-b4cc-10f3cb50a38f,,-8.06806,-34.88084
"23179",5c30ebfa-8d16-4b75-b6f6-0a80eeb6cd50,,"4373",true,Gildo Lanches,Gildo Lanches,NUGildo LanchesLL,POINT(-34.8994884717283 -8.05757919452347),2025-11-18 07:12:53.298744 UTC,2025-11-13 14:30:04.654818 UTC,2025-11-18 09:35:05.801339 UTC,false,true,,efa3c87a-e50e-4804-bb39-ea9c50dc8aff,,-8.05758,-34.89949
"23178",0dcc9024-48f8-4e18-a323-7dc462399f0b,,"4373",true,Gildo Lanches,Entrada,Gildo Lanches,POINT(-34.8994726022404 -8.05757826102418),2025-11-18 07:12:53.298744 UTC,,2025-11-18 09:35:05.801339 UTC,true,true,,efa3c87a-e50e-4804-bb39-ea9c50dc8aff,,-8.05758,-34.89947
"23524",6c90cc07-2851-4608-9c31-acc8dbe001c1,,"4373",true,Goa Motel,Entrada,Goa Motel,POINT(-34.9243437339972 -8.18440299875533),2025-11-18 07:12:53.298744 UTC,,2025-11-18 09:35:05.801339 UTC,true,true,,c7dd177d-3aa6-4833-a578-c3585aba0179,,-8.18440,-34.92434
"23455",c3383487-5b34-42ef-9e4a-f90246340955,,"4373",true,Golden Beach,Entrada,Golden Beach,POINT(-34.9177108552632 -8.17968311433144),2025-11-18 07:12:53.298744 UTC,,2025-11-18 09:35:05.801339 UTC,true,true,,50c432a2-1d1c-4f24-a23a-70eeb973aca0,,-8.17968,-34.91771
"23491",47da7f7f-e96d-4333-af63-e4bdd536df84,,"4373",true,Grand Mercure Recife Boa Viagem,Entrada,,POINT(-34.8974565592688 -8.12508213186233),2025-11-18 07:12:53.298744 UTC,,2025-11-18 09:35:05.801339 UTC,true,true,,119b3278-eda0-4e99-b643-f55dd2e2abe0,,-8.12508,-34.89746
"23308",f755b56e-29a0-47fc-a86d-d807aa052da4,,"4373",true,Grau Técnico - Recife Boa Vista,Entrada,,POINT(-34.89161 -8.05716),2025-11-18 07:12:53.298744 UTC,,2025-11-18 09:35:05.801339 UTC,true,true,,d5af9c76-04a8-42f2-bffe-87d2e816afad,,-8.05716,-34.89161
"23507",ea52b460-0c9c-4871-b0b9-9cedb793398d,,"4373",true,Grau Técnico Olinda,Entrada,Grau Técnico Olinda,POINT(-34.836774923542 -7.98212967371977),2025-11-18 07:12:53.298744 UTC,,2025-11-18 09:35:05.801339 UTC,true,true,,8e5cb511-c076-4a4a-9e64-5b01a77a2416,,-7.98213,-34.83677
"23340",6decfabb-a854-459c-bde1-6e91181dbbbc,,"4373",true,Grau Técnico Recife Imbiribeira,Entrada,Grau Técnico Recife Imbiribeira,POINT(-34.909000512091 -8.0921952747155),2025-11-18 07:12:53.298744 UTC,,2025-11-18 09:35:05.801339 UTC,true,true,,b8ba9677-24c5-40a0-a450-57be736ee9c2,,-8.09220,-34.90900
"23248",cba05397-74ca-4e99-b0d8-89c13e69a7d8,,"4373",true,Hapvida,Vida & Imagem,Hapvida,POINT(-34.8453259601707 -7.99796006578948),2025-11-18 07:12:53.298744 UTC,,2025-11-18 09:35:05.801339 UTC,true,false,,586d9e6f-2f58-4f7b-a0e2-0c2354189fa4,,-7.99796,-34.84533
"23247",a0db463d-de4a-480a-91dc-7e012729ad8c,,"4373",true,Hapvida,Emergência,Hapvida,POINT(-34.8454995910384 -7.9983568029872),2025-11-18 07:12:53.298744 UTC,,2025-11-18 09:35:05.801339 UTC,true,true,,586d9e6f-2f58-4f7b-a0e2-0c2354189fa4,,-7.99836,-34.84550
"23324",7db29ad8-102f-4a92-81cb-081be4297701,,"4373",true,Hapvida - Pronto Atendimento (Derby),Entrada,Hapvida - Pronto Atendimento (Derby),POINT(-34.8987535028449 -8.05503269292319),2025-11-18 07:12:53.298744 UTC,,2025-11-18 09:35:05.801339 UTC,true,true,,4087900e-ed63-4bd8-9f89-4256baf9580b,,-8.05503,-34.89875
"23347",bb086af8-cd79-4644-be7d-9c292430b611,,"4373",true,Hemope,Entrada,Hemope,POINT(-34.8978187731152 -8.05283172652916),2025-11-18 07:12:53.298744 UTC,,2025-11-18 09:35:05.801339 UTC,true,true,,96082d24-ea5c-4926-b942-129ec985cfcc,,-8.05283,-34.89782
"23267",d71b6d1e-edd6-47e2-b03a-6c7da3401a8b,,"4373",true,Hiper Mateus Casa Forte,Entrada,Hiper Mateus Casa Forte,POINT(-34.9132326066856 -8.03839810810811),2025-11-18 07:12:53.298744 UTC,,2025-11-18 09:35:05.801339 UTC,true,true,,9d389583-f28d-475c-8501-d23e2c780d2a,,-8.03840,-34.91323
"23240",3ca42d28-034a-46a8-bdb5-39272642f64a,,"4373",true,Home Center Ferreira Costa Imbiribeira,Entrada,Home Center Ferreira Costa Imbiribeira,POINT(-34.9116655974395 -8.11175289118066),2025-11-18 07:12:53.298744 UTC,,2025-11-18 09:35:05.801339 UTC,true,true,,b6a657d2-99bf-40b7-ae79-f17f570c906f,,-8.11175,-34.91167
"23241",c9445e45-e1ca-48be-9c98-6dbdb4cbb3db,,"4373",true,Home Center Ferreira Costa Imbiribeira,Home Center Ferreira Costa Imbiribeira,NHome Center Ferreira Costa ImbiribeiraULL,POINT(-34.9116730654338 -8.11178042940968),2025-11-18 07:12:53.298744 UTC,2025-11-13 14:30:04.654818 UTC,2025-11-18 09:35:05.801339 UTC,false,true,,b6a657d2-99bf-40b7-ae79-f17f570c906f,,-8.11178,-34.91167
"23189",dbea395c-c68a-4b69-9a7d-8e8b2770eff9,,"4373",true,Home Center Ferreira Costa Tamarineira,Home Center Ferreira Costa Tamarineira,Home Center Ferreira Costa Tamarineira,POINT(-34.9023739153627 -8.03129423808676),2025-11-18 07:12:53.298744 UTC,2025-11-13 14:30:04.654818 UTC,2025-11-18 09:35:05.801339 UTC,false,true,,b8caa7e1-fea8-49ab-81d1-884cb19b45aa,,-8.03129,-34.90237
"23188",3f10d9bb-f2e9-49b0-9a34-3a2aa8bb4bee,,"4373",true,Home Center Ferreira Costa Tamarineira,Entrada,Home Center Ferreira Costa Tamarineira,POINT(-34.9023944523471 -8.03133344505689),2025-11-18 07:12:53.298744 UTC,,2025-11-18 09:35:05.801339 UTC,true,true,,b8caa7e1-fea8-49ab-81d1-884cb19b45aa,,-8.03133,-34.90239
"23026",654cc97b-91ac-41a0-b8a2-17640ea84feb,,"4373",true,Hospital Agamenon Magalhães,Hospital Agamenon Magalhães,Hospital Agamenon Magalhães,POINT(-34.9075599702277 -8.03050691113492),2025-11-18 07:12:53.298744 UTC,,2025-11-18 09:35:05.801339 UTC,true,true,,f690574b-6b3a-456c-bcb4-2b00d14aa6fb,,-8.03051,-34.90756
"23164",3a6bf139-40f4-4062-9695-0b385175b33c,,"4373",true,Hospital Alfa,Entrada,,POINT(-34.9029774070262 -8.13123804788186),2025-11-18 07:12:53.298744 UTC,,2025-11-18 09:35:05.801339 UTC,true,true,,5d62b2ec-99d6-4677-a827-912faf53f48c,,-8.13124,-34.90298
"23141",9a118107-e371-43e3-975f-bae9ba87694b,,"4373",true,Hospital Barão de Lucena,Entrada,,POINT(-34.9392237487805 -8.03882672187596),2025-11-18 07:12:53.298744 UTC,,2025-11-18 09:35:05.801339 UTC,true,true,,888a098f-a866-4547-92f4-1e8aaef78c3d,,-8.03883,-34.93922
"23500",081b4119-6553-435f-b2ac-6e0250f23a88,,"4373",true,Hospital Brites De Albuquerque,Entrada,,POINT(-34.8589428522318 -7.98041015100053),2025-11-18 07:12:53.298744 UTC,,2025-11-18 09:35:05.801339 UTC,true,true,,d2fa6808-c43a-4b37-a341-090fb709d62a,,-7.98041,-34.85894
"23468",f7f3458a-5fab-41ba-9ba7-14abc56758c8,,"4373",true,Hospital Correia Picanço,Ambulatorio,Hospital Correia Picanço,POINT(-34.9044515985064 -8.03397160650783),2025-11-18 07:12:53.298744 UTC,,2025-11-18 09:35:05.801339 UTC,true,false,,c3d83a75-da6f-4162-aa0a-bfd5313aa395,,-8.03397,-34.90445
"23469",eb5d9b32-d330-4295-9eb4-59c41b46c6d4,,"4373",true,Hospital Correia Picanço,Administracao,Hospital Correia Picanço,POINT(-34.9044646674964 -8.03431140024894),2025-11-18 07:12:53.298744 UTC,,2025-11-18 09:35:05.801339 UTC,true,false,,c3d83a75-da6f-4162-aa0a-bfd5313aa395,,-8.03431,-34.90446
"23552",dbc58b5e-8770-4601-93ef-f12ab1cf2930,,"4373",true,Hospital De Ávila,Entrada,,POINT(-34.9068217581884 -8.0522629046086),2025-11-18 07:12:53.298744 UTC,,2025-11-18 09:35:05.801339 UTC,true,true,,59552221-1d1d-4bb2-8471-195051eb402d,,-8.05226,-34.90682
"23232",51bc65e2-7e27-4162-946e-96b31605ac4a,,"4373",true,Hospital Eduardo Campos da Pessoa Idosa,Entrada,Hospital Eduardo Campos da Pessoa Idosa,POINT(-34.9279817389758 -8.10015238709105),2025-11-18 07:12:53.298744 UTC,,2025-11-18 09:35:05.801339 UTC,true,true,,f9a2ac4d-7c8d-488b-a3a3-248002a2e617,,-8.10015,-34.92798
"23233",b98ea362-7e1a-4864-bbec-d0d146535726,,"4373",true,Hospital Eduardo Campos da Pessoa Idosa,Hospital Eduardo Campos da Pessoa Idosa,Hospital Eduardo Campos da Pessoa Idosa,POINT(-34.9279873399715 -8.10012624911097),2025-11-18 07:12:53.298744 UTC,2025-11-13 14:30:04.654818 UTC,2025-11-18 09:35:05.801339 UTC,false,true,,f9a2ac4d-7c8d-488b-a3a3-248002a2e617,,-8.10013,-34.92799
"23266",3c872bae-e971-4edf-96d5-273adb0c9ee7,,"4373",true,Hospital Emergência Hapvida Pediatria e Adulto Caxangá,Entrada,,POINT(-34.9433492496242 -8.04179938106823),2025-11-18 07:12:53.298744 UTC,,2025-11-18 09:35:05.801339 UTC,true,true,,0d46a8cd-dcc0-47e3-9450-7f80699801f3,,-8.04180,-34.94335
"23357",b0e6c407-cbe5-4c84-9e36-0dd05d1348be,,"4373",true,Hospital Esperança Olinda,Entrada,Hospital Esperança Olinda,POINT(-34.8390743083215 -7.98797346550498),2025-11-18 07:12:53.298744 UTC,,2025-11-18 09:35:05.801339 UTC,true,true,,d6f3b9eb-120f-48f4-83d0-0bae9aadda60,,-7.98797,-34.83907
"23356",904a95af-1f2c-4022-bbcd-c1e26a507c2f,,"4373",true,Hospital Esperança Olinda,Emergencia,Hospital Esperança Olinda,POINT(-34.8387821230441 -7.98794172652916),2025-11-18 07:12:53.298744 UTC,,2025-11-18 09:35:05.801339 UTC,true,false,,d6f3b9eb-120f-48f4-83d0-0bae9aadda60,,-7.98794,-34.83878
"23542",9552e2b0-bb4a-4773-8f59-74ebd64ec866,,"4373",true,Hospital Esperança Recife,Emergência,,POINT(-34.8955601506457 -8.06697335423989),2025-11-18 07:12:53.298744 UTC,,2025-11-18 09:35:05.801339 UTC,true,true,,6f57a65f-83c8-4fa7-b365-74fe6534be7f,,-8.06697,-34.89556
"23544",6a24df4d-8e11-4cd0-9de6-37e8929d3f94,,"4373",true,Hospital Esperança Recife,Emergência Pediátrica,,POINT(-34.8942357350109 -8.06765235828987),2025-11-18 07:12:53.298744 UTC,,2025-11-18 09:35:05.801339 UTC,true,true,,6f57a65f-83c8-4fa7-b365-74fe6534be7f,,-8.06765,-34.89424
"23543",f4d6c734-522e-49dd-8fd5-0f65d6fdfe18,,"4373",true,Hospital Esperança Recife,Entrada,,POINT(-34.8950035942179 -8.0669303910842),2025-11-18 07:12:53.298744 UTC,,2025-11-18 09:35:05.801339 UTC,true,true,,6f57a65f-83c8-4fa7-b365-74fe6534be7f,,-8.06693,-34.89500
"23505",f401fd6f-5896-4890-8054-0122b89312a0,,"4373",true,Hospital Evangélico,Entrada,Hospital Evangélico,POINT(-34.9064481081081 -8.03921646870554),2025-11-18 07:12:53.298744 UTC,,2025-11-18 09:35:05.801339 UTC,true,true,,4b919fc3-8aae-40b2-bc8a-02a29bcd7a02,,-8.03922,-34.90645
"23492",ddf07a4b-a7a1-4a1a-87de-6885425c7534,,"4373",true,Hospital Geral Materno Infantil,Entrada,,POINT(-34.8947905757194 -8.06105650199814),2025-11-18 07:12:53.298744 UTC,,2025-11-18 09:35:05.801339 UTC,true,true,,9534f87b-f893-4f0f-8edc-4fafaffbad55,,-8.06106,-34.89479
"23119",b7b4d16c-5968-4d9b-a035-b38be221d4a9,,"4373",true,Hospital Geral de Areias,Emergência,,POINT(-34.9253044872734 -8.10024115736899),2025-11-18 07:12:53.298744 UTC,,2025-11-18 09:35:05.801339 UTC,true,true,,9fa7a397-e6c3-4b5b-af3f-80dc469495e3,,-8.10024,-34.92530
"23118",79241600-aa1c-4b8f-9407-0db880dc0db3,,"4373",true,Hospital Geral de Areias,Entrada,,POINT(-34.9260816620385 -8.10014833087695),2025-11-18 07:12:53.298744 UTC,,2025-11-18 09:35:05.801339 UTC,true,true,,9fa7a397-e6c3-4b5b-af3f-80dc469495e3,,-8.10015,-34.92608
"23114",dfa153e7-ee09-46a9-988f-57c512bb1dcc,,"4373",true,Hospital Getúlio Vargas,Hospital Getúlio Vargas,Hospital Getúlio Vargas,POINT(-34.9217431098862 -8.05138648915363),2025-11-18 07:12:53.298744 UTC,,2025-11-18 09:35:05.801339 UTC,false,true,,46c7bc34-705c-439b-a36d-90022996eca8,,-8.05139,-34.92174
"23113",e586d4b8-9838-47a9-9cc0-362713188f41,,"4373",true,Hospital Getúlio Vargas,Entrada,Hospital Getúlio Vargas,POINT(-34.9217244399004 -8.05136035117354),2025-11-18 07:12:53.298744 UTC,,2025-11-18 09:35:05.801339 UTC,true,false,,46c7bc34-705c-439b-a36d-90022996eca8,,-8.05136,-34.92172
"23112",8551b8aa-57cd-427c-a9cd-8b7e2100c0ce,,"4373",true,Hospital Getúlio Vargas,Entrada Ambulatorio,Hospital Getúlio Vargas,POINT(-34.9227811610953 -8.05127820323613),2025-11-18 07:12:53.298744 UTC,,2025-11-18 09:35:05.801339 UTC,true,false,,46c7bc34-705c-439b-a36d-90022996eca8,,-8.05128,-34.92278
"23298",78b6776b-dcc0-4049-ac7a-89e26d5fbfd4,,"4373",true,Hospital Guararapes,Emergencia & Ambulatorio,Hospital Guararapes,POINT(-34.9331897937411 -8.16577138780227),2025-11-18 07:12:53.298744 UTC,,2025-11-18 09:35:05.801339 UTC,true,true,,002b193c-51fb-43e9-a4fb-393e0cb43317,,-8.16577,-34.93319
"23278",1f1dcfe5-2ecf-4467-b213-5b69dd893384,,"4373",true,Hospital Ilha do Leite - Hapvida,Entrada,,POINT(-34.8952081049895 -8.06367113121667),2025-11-18 07:12:53.298744 UTC,,2025-11-18 09:35:05.801339 UTC,true,true,,cba6432b-758c-461d-9b67-e7ee1965a5be,,-8.06367,-34.89521
"23128",5e27a91f-c7c3-45b3-b93e-86fc6c378302,,"4373",true,Hospital Infantil Mandacaru,Emergencia,Hospital Infantil Mandacaru,POINT(-34.88262693101 -8.04076694345662),2025-11-18 07:12:53.298744 UTC,,2025-11-18 09:35:05.801339 UTC,true,false,,0518b834-1f07-4f9c-9dfc-1a6f2fedbbf7,,-8.04077,-34.88263
"23129",bc84eab2-b9a1-4c03-939c-3beed9c07aef,,"4373",true,Hospital Infantil Mandacaru,Hospital Infantil Mandacaru,NHospital Infantil MandacaruLL,POINT(-34.8824561006401 -8.04070346550498),2025-11-18 07:12:53.298744 UTC,,2025-11-18 09:35:05.801339 UTC,false,true,,0518b834-1f07-4f9c-9dfc-1a6f2fedbbf7,,-8.04070,-34.88246
"23127",a40f0ee1-2557-4ad8-999f-f9bf4e0e618a,,"4373",true,Hospital Infantil Mandacaru,Entrada,Hospital Infantil Mandacaru,POINT(-34.8824420981508 -8.04069413051209),2025-11-18 07:12:53.298744 UTC,,2025-11-18 09:35:05.801339 UTC,true,false,,0518b834-1f07-4f9c-9dfc-1a6f2fedbbf7,,-8.04069,-34.88244
"23512",a062eb04-e1d5-4e08-bd60-abe2274aa898,,"4373",true,Hospital Jayme da Fonte,Entrada,,POINT(-34.9001989342147 -8.05124676619053),2025-11-18 07:12:53.298744 UTC,,2025-11-18 09:35:05.801339 UTC,true,true,,9c4bbe03-fb6e-4dfa-8691-680d0b5df15b,,-8.05125,-34.90020
"23097",07d5945a-3de6-4d20-b19e-e7e59c631732,,"4373",true,Hospital Maria Lucinda,Entrada desde el R. Leonardo Bezerra Cavalcante,,POINT(-34.9071685917467 -8.035952227868),2025-11-18 07:12:53.298744 UTC,,2025-11-18 09:35:05.801339 UTC,true,true,,2b982a63-5e61-4e73-86fb-776e14b0864b,,-8.03595,-34.90717
"23096",a7f04281-9363-4e00-8911-ee9ed541f5c8,,"4373",true,Hospital Maria Lucinda,Entrada desde el Av. Parnamirim,,POINT(-34.9075395403116 -8.03541765383788),2025-11-18 07:12:53.298744 UTC,,2025-11-18 09:35:05.801339 UTC,true,true,,2b982a63-5e61-4e73-86fb-776e14b0864b,,-8.03542,-34.90754
"23452",c6d965f7-5ab9-4bdc-a6c6-5a8da789f7c6,,"4373",true,Hospital Memorial Jaboatāo,Ambulatorio,Hospital Memorial Jaboatāo,POINT(-35.0122594096728 -8.11170319256757),2025-11-18 07:12:53.298744 UTC,,2025-11-18 09:35:05.801339 UTC,true,true,,ca6c35d6-132a-4fc9-8404-7890cdac769a,,-8.11170,-35.01226
"23212",da262c13-b7b6-40b0-bdc6-2c3c65371a94,,"4373",true,Hospital Miguel Arraes,Entrada,,POINT(-34.8915182523328 -7.92079087697003),2025-11-18 07:12:53.298744 UTC,,2025-11-18 09:35:05.801339 UTC,true,true,,4be25955-1ba7-4171-af95-9e2494858543,,-7.92079,-34.89152
"23213",de7fd194-914f-4aad-bcca-c85a938c454a,,"4373",true,Hospital Miguel Arraes,Emergência,,POINT(-34.8916110362028 -7.92009972182712),2025-11-18 07:12:53.298744 UTC,,2025-11-18 09:35:05.801339 UTC,true,true,,4be25955-1ba7-4171-af95-9e2494858543,,-7.92010,-34.89161
"23319",be6a43b1-7258-4372-b4ad-3033211e0070,,"4373",true,Hospital Militar de Área de Recife,Entrada,,POINT(-34.8844542949564 -8.05783273172545),2025-11-18 07:12:53.298744 UTC,,2025-11-18 09:35:05.801339 UTC,true,true,,a36b904b-e39b-4705-9f32-5e4ec049b55c,,-8.05783,-34.88445
"23028",090a304f-33c8-4a5f-acf1-7d09105adb19,,"4373",true,Hospital Oswaldo Cruz,Hospital Oswaldo Cruz,Hospital Oswaldo Cruz,POINT(-34.8878433821394 -8.0476752616197),2025-11-18 07:12:53.298744 UTC,,2025-11-18 09:35:05.801339 UTC,true,true,,c64aa28d-bd3d-40ce-a020-56952a67f21d,,-8.04768,-34.88784
"23027",541acc25-d212-4063-ac87-43c277596ed1,,"4373",true,Hospital Otávio de Freitas,Hospital Otávio de Freitas,Hospital Otávio de Freitas,POINT(-34.9617343385667 -8.08696042813986),2025-11-18 07:12:53.298744 UTC,,2025-11-18 09:35:05.801339 UTC,true,true,,048c8052-10b2-4d14-bbc3-8ea702467dc0,,-8.08696,-34.96173
"23259",6171611c-86e9-43c6-a94c-e14c7e4d1697,,"4373",true,Hospital Pelópidas Silveira,Ambulância,,POINT(-34.9510786313062 -8.07238903539064),2025-11-18 07:12:53.298744 UTC,,2025-11-18 09:35:05.801339 UTC,true,true,,d0b99cef-a7f9-492b-a88c-850647f67786,,-8.07239,-34.95108
"23265",49732173-240a-4a53-8b33-6d243937134b,,"4373",true,Hospital Pelópidas Silveira,Entrada,,POINT(-34.9502884083567 -8.07265429092811),2025-11-18 07:12:53.298744 UTC,,2025-11-18 09:35:05.801339 UTC,true,true,,d0b99cef-a7f9-492b-a88c-850647f67786,,-8.07265,-34.95029
"23481",0d2e8ba2-20c2-424a-aac5-de81aa3c6336,,"4373",true,Hospital Santa Joana Recife,Entrada,,POINT(-34.8981689518145 -8.05159150128382),2025-11-18 07:12:53.298744 UTC,,2025-11-18 09:35:05.801339 UTC,true,false,,764b8816-dce3-4499-934b-92bbd6d55114,,-8.05159,-34.89817
"23480",c83a1272-e2c8-4b41-b4a9-a392ababff08,,"4373",true,Hospital Santa Joana Recife,Entrada principal,,POINT(-34.8984950401672 -8.05243718411108),2025-11-18 07:12:53.298744 UTC,,2025-11-18 09:35:05.801339 UTC,true,true,,764b8816-dce3-4499-934b-92bbd6d55114,,-8.05244,-34.89850
"23120",a7d0bb3e-2355-4c9b-bbc2-b1d6300c4cef,,"4373",true,Hospital Tricentenàrio,Emergencia,Hospital Tricentenàrio,POINT(-34.8436174715505 -8.01066123933143),2025-11-18 07:12:53.298744 UTC,,2025-11-18 09:35:05.801339 UTC,true,false,,7601aadc-0d8e-42cd-beaf-612e480b4733,,-8.01066,-34.84362
"23121",18fa6ce7-500c-425c-80de-bf1f3d85b542,,"4373",true,Hospital Tricentenàrio,Maternidade,Hospital Tricentenàrio,POINT(-34.8443138620199 -8.01079099573256),2025-11-18 07:12:53.298744 UTC,,2025-11-18 09:35:05.801339 UTC,true,false,,7601aadc-0d8e-42cd-beaf-612e480b4733,,-8.01079,-34.84431
"23122",5ae16759-b836-4ed3-b11f-caa9307afdea,,"4373",true,Hospital Tricentenàrio,Hospital Tricentenàrio,Hospital Tricentenàrio,POINT(-34.844297992532 -8.01081153271692),2025-11-18 07:12:53.298744 UTC,,2025-11-18 09:35:05.801339 UTC,false,true,,7601aadc-0d8e-42cd-beaf-612e480b4733,,-8.01081,-34.84430
"23365",a16d3109-d8e7-4047-8559-7aea3a0b6615,,"4373",true,Hospital Vasco Lucena - Hapvida,Entrada,Hospital Vasco Lucena - Hapvida,POINT(-34.8894776084637 -8.05976349039829),2025-11-18 07:12:53.298744 UTC,,2025-11-18 09:35:05.801339 UTC,true,true,,32d59348-139a-4a82-9f55-7c66984a3303,,-8.05976,-34.88948
"23333",1233f60a-0d9f-4a22-9c00-e04e7b097047,,"4373",true,Hospital Veterinário do Recife,Entrada,,POINT(-34.9202090422044 -8.04426848083757),2025-11-18 07:12:53.298744 UTC,,2025-11-18 09:35:05.801339 UTC,true,true,,6bf63360-1fed-41ab-8304-ee77d6d5468d,,-8.04427,-34.92021
"22253",3a516e90-7e6e-41bb-b922-2411356a245f,,"4373",true,Hospital da Mulher de Recife,Ambulancia,Hospital da Mulher de Recife,POINT(-34.9409492738493 -8.07069905159735),2025-11-18 07:12:53.298744 UTC,,2025-11-18 09:35:05.801339 UTC,true,false,,f4625bc6-5dc1-445c-a658-10f04f3f3f2a,,-8.07070,-34.94095
"22254",8895bf1c-45e9-4014-8a78-ae59d8dbdceb,,"4373",true,Hospital da Mulher de Recife,Entrada,Hospital da Mulher de Recife,POINT(-34.9408440974844 -8.07043896743244),2025-11-18 07:12:53.298744 UTC,,2025-11-18 09:35:05.801339 UTC,true,true,,f4625bc6-5dc1-445c-a658-10f04f3f3f2a,,-8.07044,-34.94084
"23090",77da080a-d8f1-4f38-af8c-bc458e346ad5,,"4373",true,Hospital da Restauração Governador Paulo Guerra,Entrada,,POINT(-34.8970898923692 -8.05307433345953),2025-11-18 07:12:53.298744 UTC,,2025-11-18 09:35:05.801339 UTC,true,true,,e7cf47fc-8ba7-49b2-a32c-4021f29ccbdc,,-8.05307,-34.89709
"23091",afaf0c68-f8be-4937-9c40-87dba6a9fc38,,"4373",true,Hospital da Restauração Governador Paulo Guerra,Emergencia Clinica,,POINT(-34.8978445704626 -8.05444197662134),2025-11-18 07:12:53.298744 UTC,,2025-11-18 09:35:05.801339 UTC,true,true,,e7cf47fc-8ba7-49b2-a32c-4021f29ccbdc,,-8.05444,-34.89784
"23109",0f8747a5-5134-40f1-b0de-4e33b3f9d7c1,,"4373",true,Hospital das Clínicas UFPE,Entrada,,POINT(-34.9467734492757 -8.04735351992075),2025-11-18 07:12:53.298744 UTC,,2025-11-18 09:35:05.801339 UTC,true,true,,cf76f4ee-2250-4260-90a2-5109e0d0778f,,-8.04735,-34.94677
"23136",b3059629-de17-4a59-ac2f-30266be762df,,"4373",true,Hospital de Câncer de Pernambuco,Entrada principal,,POINT(-34.8726579224215 -8.04060789168425),2025-11-18 07:12:53.298744 UTC,,2025-11-18 09:35:05.801339 UTC,true,true,,c9b38d8a-e426-4309-8817-54ccc229f582,,-8.04061,-34.87266
"23137",4aa1121b-864a-4ad8-8dba-3bc803f47337,,"4373",true,Hospital de Câncer de Pernambuco,Entrada,,POINT(-34.8728877576417 -8.04146959512591),2025-11-18 07:12:53.298744 UTC,,2025-11-18 09:35:05.801339 UTC,true,true,,c9b38d8a-e426-4309-8817-54ccc229f582,,-8.04147,-34.87289
"23138",cb1c8ed3-1b67-47d2-988d-81232e0830c1,,"4373",true,Hospital de Pediatria Helena Moura,Emergência,,POINT(-34.9022448734848 -8.03199627001063),2025-11-18 07:12:53.298744 UTC,,2025-11-18 09:35:05.801339 UTC,true,true,,fe67843c-04b7-4bb5-8682-e470e3b1c93c,,-8.03200,-34.90224
"23139",ec562d1f-c717-42e2-a191-f257053cec86,,"4373",true,Hospital de Pediatria Helena Moura,Entrada,,POINT(-34.901426402848 -8.03179784919018),2025-11-18 07:12:53.298744 UTC,,2025-11-18 09:35:05.801339 UTC,true,true,,fe67843c-04b7-4bb5-8682-e470e3b1c93c,,-8.03180,-34.90143
"23163",d1eba54f-84ae-4c2c-a08a-c55b6fceb38e,,"4373",true,Hospital dos Servidores do Estado - HSE,Hospital dos Servidores do Estado - HSE,Hospital dos Servidores do Estado - HSE,POINT(-34.8967583890469 -8.04797501866999),2025-11-18 07:12:53.298744 UTC,2025-11-13 14:30:04.654818 UTC,2025-11-18 09:35:05.801339 UTC,false,true,,fb07e104-d672-499b-97fc-8d06c5bbb3f6,,-8.04798,-34.89676
"23162",f86184c1-81d7-432f-8ebd-389e04379ec9,,"4373",true,Hospital dos Servidores do Estado - HSE,Entrada,Hospital dos Servidores do Estado - HSE,POINT(-34.8967733250355 -8.04794514669275),2025-11-18 07:12:53.298744 UTC,,2025-11-18 09:35:05.801339 UTC,true,true,,fb07e104-d672-499b-97fc-8d06c5bbb3f6,,-8.04795,-34.89677
"23252",35e468da-6f27-4b66-a3dc-a5d144a9695d,,"4373",true,Hospital e Policlínica Jaboatão Prazeres,Emergência,,POINT(-34.9238059248211 -8.16630762423206),2025-11-18 07:12:53.298744 UTC,,2025-11-18 09:35:05.801339 UTC,true,true,,ad777ea5-bbbc-46dc-98ae-9edbe9007b9f,,-8.16631,-34.92381
"23323",287f56f4-7784-4e10-aa69-73b01c00286d,,"4373",true,Hotel Cristal do Ibura,Entrada,NUHotel Cristal do IburaLL,POINT(-34.9338837091039 -8.11060276760312),2025-11-18 07:12:53.298744 UTC,,2025-11-18 09:35:05.801339 UTC,true,true,,cde971a9-002a-4a40-8edd-4f6738479e5b,,-8.11060,-34.93388
"23511",3f4d4325-5c81-4a28-87c4-28687d185b20,,"4373",true,Hotel Lua de Mel,Entrada,,POINT(-34.900749210774 -8.07872083357242),2025-11-18 07:12:53.298744 UTC,,2025-11-18 09:35:05.801339 UTC,true,true,,50b84f66-cb6e-478f-9392-ff0fa4a0cf55,,-8.07872,-34.90075
"23359",4215be9c-8a16-482b-8ef0-3bd55abedbbd,,"4373",true,Hotel my love peixinhos,Entrada,Hotel my love peixinhos,POINT(-34.8798349484353 -8.00894995465861),2025-11-18 07:12:53.298744 UTC,,2025-11-18 09:35:05.801339 UTC,true,true,,7c18d5e0-2b6a-422b-95fe-4018390b6bc8,,-8.00895,-34.87983
"22258",3f7fc3f3-709d-4da6-9365-b7c0555709ca,,"4373",true,IMIP Instituto de Medicina Integral Professor Fernando Figueira,Entrada 1,IMIP Instituto de Medicina Integral Professor Fernando Figueira,POINT(-34.8899481440387 -8.06676142096786),2025-11-18 07:12:53.298744 UTC,,2025-11-18 09:35:05.801339 UTC,true,false,,0c33173c-127f-491c-b2ca-ea346da11605,,-8.06676,-34.88995
"22259",4bd942e4-6a90-4b86-96ba-a5dff1415b52,,"4373",true,IMIP Instituto de Medicina Integral Professor Fernando Figueira,Entrada 2,IMIP Instituto de Medicina Integral Professor Fernando Figueira,POINT(-34.8896712561923 -8.06633262937242),2025-11-18 07:12:53.298744 UTC,,2025-11-18 09:35:05.801339 UTC,true,false,,0c33173c-127f-491c-b2ca-ea346da11605,,-8.06633,-34.88967
"23014",869b9470-e69d-405c-87e3-8721f647e370,,"4373",true,IMIP Instituto de Medicina Integral Professor Fernando Figueira,IMIP Instituto de Medicina Integral Professor Fernando Figueira,,POINT(-34.8897160547906 -8.06637282292005),2025-11-18 07:12:53.298744 UTC,,2025-11-18 09:35:05.801339 UTC,false,true,,0c33173c-127f-491c-b2ca-ea346da11605,,-8.06637,-34.88972
"23329",d3a47687-8423-4318-a68f-27ba79622801,,"4373",true,Igreja Universal do Reino de Deus,Entrada,Igreja Universal do Reino de Deus,POINT(-34.8808830316501 -8.05276137535562),2025-11-18 07:12:53.298744 UTC,,2025-11-18 09:35:05.801339 UTC,true,true,,b968acce-5233-4fc0-badd-3421dc3588a9,,-8.05276,-34.88088
"23495",13aa4d61-5651-4ac2-8e56-2d9a0b6f82fe,,"4373",true,JAM Olinda - José Augusto Moreira,Entrada,JAM Olinda - José Augusto Moreira,POINT(-34.8388015407184 -7.98762431632291),2025-11-18 07:12:53.298744 UTC,,2025-11-18 09:35:05.801339 UTC,true,false,,b0d80b20-67c2-43a3-834a-f48a2bff94c6,,-7.98762,-34.83880
"23537",3a5a7b1f-ea85-44fe-8fff-5972e7723a0f,,"4373",true,Jardins da Roseira Condomínio Clube,Entrada,,POINT(-34.8740946 -7.9497007),2025-11-18 07:12:53.298744 UTC,,2025-11-18 09:35:05.801339 UTC,true,true,,32bc15e3-a4a0-45ed-9b3c-13668ad093d3,,-7.94970,-34.87409
"23292",b3cfcc37-ca00-4e49-8ce8-234a86b753d9,,"4373",true,Joana Bezerra,Entrada Sul,,POINT(-34.895655805382 -8.07341197029012),2025-11-18 07:12:53.298744 UTC,,2025-11-18 09:35:05.801339 UTC,true,true,,f4aaa200-d7ae-45b0-a103-2772810f5406,,-8.07341,-34.89566
"23291",ea304ac3-fcc4-47d4-9b9c-335fa0cae503,,"4373",true,Joana Bezerra,Entrada Norte,,POINT(-34.8957693692953 -8.07310594686352),2025-11-18 07:12:53.298744 UTC,,2025-11-18 09:35:05.801339 UTC,true,true,,f4aaa200-d7ae-45b0-a103-2772810f5406,,-8.07311,-34.89577
"23510",cd908dca-5fcb-465f-b2fd-47283221fce0,,"4373",true,Karla Mercado,Entrada,Karla Mercado,POINT(-34.8261987980085 -7.89934035117354),2025-11-18 07:12:53.298744 UTC,,2025-11-18 09:35:05.801339 UTC,true,true,,527ba934-10c9-44be-ae4e-935e0f71757c,,-7.89934,-34.82620
"23306",51d8d5e7-d1be-4dad-805c-811be0b7795b,,"4373",true,Le Parc Boa Viagem,Entrada principal,,POINT(-34.9044976127976 -8.11031011114666),2025-11-18 07:12:53.298744 UTC,,2025-11-18 09:35:05.801339 UTC,true,true,,40852cc6-ae75-4634-9b69-4fb86210812e,,-8.11031,-34.90450
"23307",9ed98958-c16c-41a3-bcee-2591b9e83d7b,,"4373",true,Le Parc Boa Viagem,Entrada,,POINT(-34.9042876634667 -8.10939925903834),2025-11-18 07:12:53.298744 UTC,,2025-11-18 09:35:05.801339 UTC,true,false,,40852cc6-ae75-4634-9b69-4fb86210812e,,-8.10940,-34.90429
"23567",33fae91d-5057-4c6c-b98e-7e59981243e0,,"4373",true,Leve Mais,Entrada,Leve Mais,POINT(-34.9336294677397 -8.17242900233546),2025-11-18 07:12:53.298744 UTC,,2025-11-18 09:35:05.801339 UTC,true,true,,53c31fe3-3e4e-4932-a881-2032b98432f5,,-8.17243,-34.93363
"23508",0f470dbb-c13f-40e4-a9be-42514fc99323,,"4373",true,Leve Mais - Barra de Jangada,Entrada,,POINT(-34.9323883019619 -8.21804251113141),2025-11-18 07:12:53.298744 UTC,,2025-11-18 09:35:05.801339 UTC,true,true,,2d0ab256-b62d-449a-a869-b87c6d4ec11e,,-8.21804,-34.93239
"23285",6d65aff8-5436-4567-ab02-c502f9c46bb4,,"4373",true,Lounge Music,Entrada,,POINT(-34.9141811485468 -8.16514783763068),2025-11-18 07:12:53.298744 UTC,,2025-11-18 09:35:05.801339 UTC,true,true,,c94f96d5-d5f0-4321-b374-f13ca197e887,,-8.16515,-34.91418
"23299",97c2ac03-71a9-42b6-bae3-b68c88e730ff,,"4373",true,Luan Promoções & Eventos,Entrada,Luan Promoções & Eventos,POINT(-34.9058515985064 -8.06535964882646),2025-11-18 07:12:53.298744 UTC,,2025-11-18 09:35:05.801339 UTC,true,true,,f1067633-a350-4148-bc66-ee7934f4f84b,,-8.06536,-34.90585
"23288",c8a668d4-2234-4ec2-93b2-f3044e0f8474,,"4373",true,Luciano Bar,Entrada,,POINT(-34.9216563448918 -8.1076885704071),2025-11-18 07:12:53.298744 UTC,,2025-11-18 09:35:05.801339 UTC,true,true,,111145a9-0bac-4c83-b90c-4cd933ec30d4,,-8.10769,-34.92166
"23270",3fe8c9e0-3058-433b-a1a3-86116a42d2ac,,"4373",true,Lá na ladeira gastrobar,Entrada,,POINT(-34.8941984920301 -8.01010977030692),2025-11-18 07:12:53.298744 UTC,,2025-11-18 09:35:05.801339 UTC,true,true,,7cdac4a0-aeea-4f7e-b3a7-cbe5a9f7d711,,-8.01011,-34.89420
"23314",639e2375-ea94-4611-a6fd-63513a93f7c7,,"4373",true,Léo Chopp - Água Fria,Entrada,,POINT(-34.8898573782985 -8.02023474337959),2025-11-18 07:12:53.298744 UTC,,2025-11-18 09:35:05.801339 UTC,true,true,,d51aebaa-adba-4041-8dd0-13ce761a89d8,,-8.02023,-34.88986
"23301",77ddab1a-e963-49c6-aa7f-a22725d2079c,,"4373",true,MR Supermercado,Entrada,MR Supermercado,POINT(-34.9391203840683 -8.11350681543385),2025-11-18 07:12:53.298744 UTC,,2025-11-18 09:35:05.801339 UTC,true,false,,20e33318-a35b-43a3-aa58-386c0b8460b4,,-8.11351,-34.93912
"23345",03c14532-7141-425e-9e11-863a16f8cbe1,,"4373",true,Mamute beer,Entrada,NMamute beerULL,POINT(-34.9048635935277 -8.04422561344239),2025-11-18 07:12:53.298744 UTC,,2025-11-18 09:35:05.801339 UTC,true,false,,290b0053-e54b-4a5a-8a69-384eebab219f,,-8.04423,-34.90486
"23264",7a0c72cd-dae4-40ce-a696-f62aa4701263,,"4373",true,Marcello's Music Bar,Entrada,Marcello's Music Bar,POINT(-34.8922526849218 -8.02486696834993),2025-11-18 07:12:53.298744 UTC,,2025-11-18 09:35:05.801339 UTC,true,true,,49416b76-2bca-485f-8e9a-2e426f92d2f7,,-8.02487,-34.89225
"23193",b2149df1-4c2d-457e-9cfa-9bccbd2d7377,,"4373",true,Maternidade Professor Bandeira Filho,Ambulancias,Maternidade Professor Bandeira Filho,POINT(-34.9111492816501 -8.07852631934567),2025-11-18 07:12:53.298744 UTC,,2025-11-18 09:35:05.801339 UTC,true,false,,6e1384c9-e4e7-470e-afa6-a916499d47ae,,-8.07853,-34.91115
"23194",412001c2-cf9c-46e9-abc4-316f33e281c7,,"4373",true,Maternidade Professor Bandeira Filho,Maternidade Professor Bandeira Filho,Maternidade Professor Bandeira Filho,POINT(-34.9107702809388 -8.07908268492176),2025-11-18 07:12:53.298744 UTC,,2025-11-18 09:35:05.801339 UTC,false,true,,6e1384c9-e4e7-470e-afa6-a916499d47ae,,-8.07908,-34.91077
"23195",f80f48fe-f632-446b-a49b-f64f29de467d,,"4373",true,Maternidade Professor Bandeira Filho,Entrada,Maternidade Professor Bandeira Filho,POINT(-34.9107348079659 -8.07908455192034),2025-11-18 07:12:53.298744 UTC,,2025-11-18 09:35:05.801339 UTC,true,false,,6e1384c9-e4e7-470e-afa6-a916499d47ae,,-8.07908,-34.91073
"23513",2071b684-9969-460c-927f-244665391cce,,"4373",true,Mercadinho Conceição,Entrada,,POINT(-34.8314580877252 -7.87962876958169),2025-11-18 07:12:53.298744 UTC,,2025-11-18 09:35:05.801339 UTC,true,true,,0a690c59-7fca-4a1f-a8e0-40d3eab784e2,,-7.87963,-34.83146
"23465",b88652eb-757d-4774-810e-2c3523c788db,,"4373",true,Mercadinho Lemos,Entrada,Mercadinho Lemos,POINT(-34.904934445457 -8.01330848306365),2025-11-18 07:12:53.298744 UTC,,2025-11-18 09:35:05.801339 UTC,true,true,,afce9089-3a4a-407b-b7cd-ec130fcf98e9,,-8.01331,-34.90493
"23461",049ac384-599d-427f-8e3c-9e6bbc2daf19,,"4373",true,Mercadinho Popular,Entrada,Mercadinho Popular,POINT(-34.9038623337482 -8.02327716438478),2025-11-18 07:12:53.298744 UTC,,2025-11-18 09:35:05.801339 UTC,true,true,,15309571-33e8-400f-86ea-6ae6b13ee2f5,,-8.02328,-34.90386
"23484",7b111d8f-a24e-4e02-8ec5-ccc296daece0,,"4373",true,Mercadinho São Rafael,Entrada,,POINT(-34.8992439 -8.01248),2025-11-18 07:12:53.298744 UTC,,2025-11-18 09:35:05.801339 UTC,true,true,,5b3f6cca-68e5-43b0-991d-7896406f9fcd,,-8.01248,-34.89924
"23335",393b1647-f64c-4155-ba40-59546d56f095,,"4373",true,Mercadinho e Padaria Monte Cristo,Entrada,Mercadinho e Padaria Monte Cristo,POINT(-34.9281370012447 -8.02321213549075),2025-11-18 07:12:53.298744 UTC,,2025-11-18 09:35:05.801339 UTC,true,true,,0eacd2b9-3dc3-4951-9b6a-b8434204abad,,-8.02321,-34.92814
"23549",ff168109-5533-4a97-9ec4-2c3885c5fb3a,,"4373",true,Mercado Público de Nova Descoberta,Entrada principal,,POINT(-34.9226607651273 -8.00034718150125),2025-11-18 07:12:53.298744 UTC,,2025-11-18 09:35:05.801339 UTC,true,true,,a7058502-6b57-45a2-b5db-d83dcc315525,,-8.00035,-34.92266
"23550",063af52b-4162-4547-b3a9-c28eb2b4cb8f,,"4373",true,Mercado Público de Nova Descoberta,Entrada,,POINT(-34.923090308683 -8.00060634292396),2025-11-18 07:12:53.298744 UTC,,2025-11-18 09:35:05.801339 UTC,true,true,,a7058502-6b57-45a2-b5db-d83dcc315525,,-8.00061,-34.92309
"23296",d5480969-558a-4bca-a81c-fcfad44e33fb,,"4373",true,Mercado da Boa Vista,Entrada,Mercado da Boa Vista,POINT(-34.8886013300142 -8.06318826102418),2025-11-18 07:12:53.298744 UTC,,2025-11-18 09:35:05.801339 UTC,true,true,,4f106d96-c8b3-4370-b29d-31d8cbcbfde6,,-8.06319,-34.88860
"23322",66318d28-a5ff-403b-9b9a-d09b88ee3331,,"4373",true,Mercado da Encruzilhada,Entrada,Mercado da Encruzilhada,POINT(-34.8921270590327 -8.03735596461593),2025-11-18 07:12:53.298744 UTC,,2025-11-18 09:35:05.801339 UTC,true,true,,28b7471e-020f-41ae-a8f5-d4b7d2dfebfd,,-8.03736,-34.89213
"23343",19901212-ea16-4da9-8f51-7dd1be469669,,"4373",true,Mercado da Madalena,Entrada Leste,Mercado da Madalena,POINT(-34.9085522635135 -8.05240046674964),2025-11-18 07:12:53.298744 UTC,,2025-11-18 09:35:05.801339 UTC,true,true,,d5aacc05-6830-4c2c-a947-26113cc23a52,,-8.05240,-34.90855
"23344",9fec52d1-6014-4d60-916a-ad7472d25291,,"4373",true,Mercado da Madalena,Entrada Oeste,Mercado da Madalena,POINT(-34.9087781703414 -8.05237432876956),2025-11-18 07:12:53.298744 UTC,,2025-11-18 09:35:05.801339 UTC,true,false,,d5aacc05-6830-4c2c-a947-26113cc23a52,,-8.05237,-34.90878
"22255",65076c2a-4a33-4014-af74-8c14bc379cb7,,"4373",true,Mercado das Mangueiras,Mercado das Mangueiras,Mercado das Mangueiras,POINT(-34.9274048541122 -8.16100666703266),2025-11-18 07:12:53.298744 UTC,,2025-11-18 09:35:05.801339 UTC,true,true,,369f0936-f5df-47a9-82ff-60fdae40c8a9,,-8.16101,-34.92740
"22256",f541d5d8-0c83-4916-818a-78e3d7923dc4,,"4373",true,Mercado das Mangueiras,Entrada 2,Mercado das Mangueiras,POINT(-34.927690588395 -8.16102924585444),2025-11-18 07:12:53.298744 UTC,2025-08-13 12:08:59.777207 UTC,2025-11-18 09:35:05.801339 UTC,true,false,,369f0936-f5df-47a9-82ff-60fdae40c8a9,,-8.16103,-34.92769
"23131",7d8b4421-5978-4536-83fe-981dd35e91e3,,"4373",true,Mercado de Afogados,Entrada Norte,Mercado de Afogados,POINT(-34.9066055432077 -8.07782249911095),2025-11-18 07:12:53.298744 UTC,,2025-11-18 09:35:05.801339 UTC,true,false,,d09ce55e-a57d-4473-b641-d9e62097b2a1,,-8.07782,-34.90661
"23134",3df9d1ad-4c10-4099-acd3-eb5ad8d8d552,,"4373",true,Mercado de Afogados,Entrada Oeste,Mercado de Afogados,POINT(-34.906878125 -8.07811188389046),2025-11-18 07:12:53.298744 UTC,,2025-11-18 09:35:05.801339 UTC,true,false,,d09ce55e-a57d-4473-b641-d9e62097b2a1,,-8.07811,-34.90688
"23135",24939d44-d2a1-4f51-8a2e-93f36550a81c,,"4373",true,Mercado de Afogados,Mercado de Afogados,Mercado de Afogados,POINT(-34.906577538229 -8.07777395714793),2025-11-18 07:12:53.298744 UTC,,2025-11-18 09:35:05.801339 UTC,false,true,,d09ce55e-a57d-4473-b641-d9e62097b2a1,,-8.07777,-34.90658
"23132",2b4b3cef-7cd1-429a-8372-e1c410791d39,,"4373",true,Mercado de Afogados,Entrada Sul,Mercado de Afogados,POINT(-34.9063871043741 -8.07838073168562),2025-11-18 07:12:53.298744 UTC,,2025-11-18 09:35:05.801339 UTC,true,false,,d09ce55e-a57d-4473-b641-d9e62097b2a1,,-8.07838,-34.90639
"23133",b255d04a-eb89-4c73-9aca-45e0ae5c5cad,,"4373",true,Mercado de Afogados,Entrada Ieste,Mercado de Afogados,POINT(-34.9060734486131 -8.07768060721906),2025-11-18 07:12:53.298744 UTC,,2025-11-18 09:35:05.801339 UTC,true,false,,d09ce55e-a57d-4473-b641-d9e62097b2a1,,-8.07768,-34.90607
"23268",0cd9e630-46fe-438f-b909-c07ed0dcbbc9,,"4373",true,Mercado de Boa Viagem,Entrada principal,Mercado de Boa Viagem,POINT(-34.9010726600285 -8.12961878556188),2025-11-18 07:12:53.298744 UTC,,2025-11-18 09:35:05.801339 UTC,true,true,,d2376f56-1867-4304-a3e6-fb8efadabb2b,,-8.12962,-34.90107
"23269",85a6b2b8-9854-4bce-86c1-722d7eaaf8db,,"4373",true,Mercado de Boa Viagem,Entrada 2,Mercado de Boa Viagem,POINT(-34.9016850355619 -8.12967852951636),2025-11-18 07:12:53.298744 UTC,,2025-11-18 09:35:05.801339 UTC,true,false,,d2376f56-1867-4304-a3e6-fb8efadabb2b,,-8.12968,-34.90169
"23312",211390e0-5d3f-4e1c-9d3e-71ae5b466ec1,,"4373",true,Mercado de Casa Amarela,Entrada,,POINT(-34.9177232752242 -8.02577845690337),2025-11-18 07:12:53.298744 UTC,,2025-11-18 09:35:05.801339 UTC,true,true,,e958436c-efd1-4bc5-ac93-040732bd049c,,-8.02578,-34.91772
"23107",840bac9e-c797-4e81-b4d8-265f27b9879c,,"4373",true,Mercado de São José,Entrada,,POINT(-34.8779987875255 -8.06836134481117),2025-11-18 07:12:53.298744 UTC,,2025-11-18 09:35:05.801339 UTC,true,false,,7c9996a5-a09b-40c6-a0cf-bfe015140da2,,-8.06836,-34.87800
"23093",db77e3c3-6cc7-4b69-896d-7d2b82b00710,,"4373",true,Mercado de Água Fria,Entrada,Mercado de Água Fria,POINT(-34.8939236308677 -8.01930249466572),2025-11-18 07:12:53.298744 UTC,,2025-11-18 09:35:05.801339 UTC,true,true,,ec164297-0292-47e6-9141-da69fd4a2cd1,,-8.01930,-34.89392
"23458",aa07cbb4-6fee-4a40-abd9-59109ed95761,,"4373",true,Mini Mundo Comedoria & Boteco,Entrada,Mini Mundo Comedoria & Boteco,POINT(-34.8245672924076 -7.94156262713371),2025-11-18 07:12:53.298744 UTC,,2025-11-18 09:35:05.801339 UTC,true,true,,4aac3f54-30a1-4434-8e77-dabf2a9cfa8f,,-7.94156,-34.82457
"23318",4326af7f-bc5d-43f9-89e0-2ec5cff6b1a3,,"4373",true,Mistureba Comedoria e Boteco,Entrada,,POINT(-34.8946975463794 -8.02551969047578),2025-11-18 07:12:53.298744 UTC,,2025-11-18 09:35:05.801339 UTC,true,true,,c8cfbf34-1e68-4dce-9efd-bf6ac4f4735c,,-8.02552,-34.89470
"23196",145b575f-e74b-49e2-ba23-f8e300ca36b6,,"4373",true,Mix Mateus - Casa Caiada,Entrada,,POINT(-34.8422749484353 -7.99299289562589),2025-11-18 07:12:53.298744 UTC,,2025-11-18 09:35:05.801339 UTC,true,true,,dfc68861-58f0-4b65-a592-2315e7de7d54,,-7.99299,-34.84227
"23355",b612e607-7ef0-4ca1-9085-8e344b7d60fd,,"4373",true,Mix Mateus - Prazeres,Entrada,Mix Mateus - Prazeres,POINT(-34.9354389260313 -8.16613026849218),2025-11-18 07:12:53.298744 UTC,,2025-11-18 09:35:05.801339 UTC,true,true,,a5971c79-f60a-4f5d-9c9d-49aaf447fa55,,-8.16613,-34.93544
"23100",af288fc5-215b-4048-9722-758be1264787,,"4373",true,Mix Mateus Areias,Entrada,Mix Mateus Areias,POINT(-34.9381677489331 -8.0919150017781),2025-11-18 07:12:53.298744 UTC,,2025-11-18 09:35:05.801339 UTC,true,true,,ed9ca6ff-ca95-402d-a1f4-08e2fc21c68f,,-8.09192,-34.93817
"23101",d585c134-d898-43e1-8943-5b5f26f85755,,"4373",true,Mix Mateus Areias,Mix Mateus Areias,Mix Mateus Areias,POINT(-34.9381360099573 -8.09192246977241),2025-11-18 07:12:53.298744 UTC,2025-11-13 14:30:04.654818 UTC,2025-11-18 09:35:05.801339 UTC,false,true,,ed9ca6ff-ca95-402d-a1f4-08e2fc21c68f,,-8.09192,-34.93814
"23151",88a8bf88-f30e-4ccd-bf88-42a7deb2f197,,"4373",true,Mix Mateus Boa Viagem,Entrada,Mix Mateus Boa Viagem,POINT(-34.9016470465861 -8.11588696834993),2025-11-18 07:12:53.298744 UTC,,2025-11-18 09:35:05.801339 UTC,true,true,,1521f3ba-0d4b-45be-9acd-d6695730d501,,-8.11589,-34.90165
"23152",b2e36d0f-d679-42a1-bb34-afea33367c42,,"4373",true,Mix Mateus Boa Viagem,Mix Mateus Boa Viagem,Mix Mateus Boa Viagem,POINT(-34.9016582485775 -8.11591497332859),2025-11-18 07:12:53.298744 UTC,2025-11-13 14:30:04.654818 UTC,2025-11-18 09:35:05.801339 UTC,false,true,,1521f3ba-0d4b-45be-9acd-d6695730d501,,-8.11591,-34.90166
"23199",ef40cf15-411b-4e7c-8a75-607b09eb07ae,,"4373",true,Mix Mateus Bongi - Recife,Mix Mateus Bongi - Recife,Mix Mateus Bongi - Recife,POINT(-34.9135296283784 -8.06538001244666),2025-11-18 07:12:53.298744 UTC,2025-11-13 14:30:04.654818 UTC,2025-11-18 09:35:05.801339 UTC,false,true,,273f301b-b716-44fe-9518-773233980220,,-8.06538,-34.91353
"23198",e61ad7ba-1f78-4303-a159-0ce292918651,,"4373",true,Mix Mateus Bongi - Recife,Entrada,Mix Mateus Bongi - Recife,POINT(-34.9135604338549 -8.06536414295875),2025-11-18 07:12:53.298744 UTC,,2025-11-18 09:35:05.801339 UTC,true,true,,273f301b-b716-44fe-9518-773233980220,,-8.06536,-34.91356
"23173",f668a0e1-098b-496b-b431-702829ef13d4,,"4373",true,Mix Mateus Caxangá,Entrada,,POINT(-34.9405095687174 -8.03908443612912),2025-11-18 07:12:53.298744 UTC,,2025-11-18 09:35:05.801339 UTC,true,true,,c365891a-dfaf-458e-9efb-85d7b04c399a,,-8.03908,-34.94051
"23148",eb9e1636-4294-4a0f-9817-a0593b82f249,,"4373",true,Mix Mateus Janga,Mix Mateus Janga,Mix Mateus Janga,POINT(-34.824809904872 -7.93477441145092),2025-11-18 07:12:53.298744 UTC,2025-11-13 14:30:04.654818 UTC,2025-11-18 09:35:05.801339 UTC,false,true,,c0053f71-b596-4752-9216-1eea293dc39a,,-7.93477,-34.82481
"282",c7b6a02a-20c4-4fa4-a275-2a0970f91e39,,"4373",true,Mix Mateus Janga,Entrada,Mix Mateus Janga,POINT(-34.8248150391181 -7.93479401493599),2025-11-18 07:12:53.298744 UTC,,2025-11-18 09:35:05.801339 UTC,true,true,,c0053f71-b596-4752-9216-1eea293dc39a,,-7.93479,-34.82482
"23167",ecf93304-4f87-4e82-9a8b-b5b410e5a33c,,"4373",true,Mix Mateus Maranguape I,Entrada,Mix Mateus Maranguape I,POINT(-34.8650293598862 -7.94236693100996),2025-11-18 07:12:53.298744 UTC,,2025-11-18 09:35:05.801339 UTC,true,true,,72a543e6-041a-48e8-84c0-a9c751bb3f3d,,-7.94237,-34.86503
"23168",324bf35e-a4ba-4cab-b346-6a47a8ada47d,,"4373",true,Mix Mateus Maranguape I,Mix Mateus Maranguape I,Mix Mateus Maranguape I,POINT(-34.8650181578947 -7.94233332503556),2025-11-18 07:12:53.298744 UTC,2025-11-13 14:30:04.654818 UTC,2025-11-18 09:35:05.801339 UTC,false,true,,72a543e6-041a-48e8-84c0-a9c751bb3f3d,,-7.94233,-34.86502
"23092",c6f8209e-9dcc-476c-a830-2d925369f7eb,,"4373",true,Mix Mateus Peixinhos,Mix Mateus Peixinhos,,POINT(-34.8802526648487 -8.0073299407959),2025-11-18 07:12:53.298744 UTC,,2025-11-18 09:35:05.801339 UTC,true,true,,895def91-e05d-40c3-a33f-6559bf369328,,-8.00733,-34.88025
"23171",14079908-ca6a-4d4a-8095-41d6885117d9,,"4373",true,Mix Mateus Santo Amaro - Recife,Mix Mateus Santo Amaro - Recife,Mix Mateus Santo Amaro - Recife,POINT(-34.8783423813122 -8.05001935988619),2025-11-18 07:12:53.298744 UTC,2025-11-13 14:30:04.654818 UTC,2025-11-18 09:35:05.801339 UTC,false,true,,ce7f806e-2142-4e2f-a0fe-3e853fdfd68c,,-8.05002,-34.87834
"23170",65529a20-b150-467e-a9a8-a54ce311f8df,,"4373",true,Mix Mateus Santo Amaro - Recife,Entrada,Mix Mateus Santo Amaro - Recife,POINT(-34.8783591842994 -8.05004549786628),2025-11-18 07:12:53.298744 UTC,,2025-11-18 09:35:05.801339 UTC,true,true,,ce7f806e-2142-4e2f-a0fe-3e853fdfd68c,,-8.05005,-34.87836
"23482",3dabceee-3b68-440e-87ea-7fceb87d1e68,,"4373",true,Nacional E. Clube,Entrada,,POINT(-34.9462681510225 -8.11922878148957),2025-11-18 07:12:53.298744 UTC,,2025-11-18 09:35:05.801339 UTC,true,true,,26f8b96e-eb58-4065-bf24-78b8122dc97b,,-8.11923,-34.94627
"23572",7bfeccc6-ffaa-4ba7-b054-bd9d3d441f75,,"4373",true,Nb society,Entrada,Nb society,POINT(-34.8979141633136 -8.02287775671797),2025-11-18 07:12:53.298744 UTC,,2025-11-18 09:35:05.801339 UTC,true,true,,5697c90f-f934-420b-974a-14d9e9532270,,-8.02288,-34.89791
"23326",69a95265-1316-4b84-9ed1-1784102fc6db,,"4373",true,Nexos Hotel Tamarineira,Entrada,Nexos Hotel Tamarineira,POINT(-34.9032760881935 -8.02699423364154),2025-11-18 07:12:53.298744 UTC,,2025-11-18 09:35:05.801339 UTC,true,true,,622f037d-dd3d-4e52-b060-d2d283c2c645,,-8.02699,-34.90328
"23172",d9d2dc7f-66ed-484e-a63b-978ddfa6c718,,"4373",true,Novo Atacarejo Afogados,Entrada,,POINT(-34.9082284736113 -8.07420780709186),2025-11-18 07:12:53.298744 UTC,,2025-11-18 09:35:05.801339 UTC,true,true,,fb7baa87-ebae-4dfb-9414-18608705c596,,-8.07421,-34.90823
"23463",7f4a8dc8-cb41-4d49-a54a-5f30c17c6d0d,,"4373",true,Novo Atacarejo Arthur Lundgren I,Entrada,Novo Atacarejo Arthur Lundgren I,POINT(-34.8842037091039 -7.93483633179232),2025-11-18 07:12:53.298744 UTC,,2025-11-18 09:35:05.801339 UTC,true,true,,dacd3f8d-fe27-4532-8543-6c869cb413a9,,-7.93484,-34.88420
"23105",ebf4a5c7-c427-4ef5-96d5-d5334276b90c,,"4373",true,Novo Atacarejo Bongi,Entrada,,POINT(-34.925169241098 -8.0617330358101),2025-11-18 07:12:53.298744 UTC,,2025-11-18 09:35:05.801339 UTC,true,true,,a828355b-e1d4-4be7-9fde-8f91867255a3,,-8.06173,-34.92517
"23205",a5910438-d076-4cd8-9ff3-1054d6dd3eec,,"4373",true,Novo Atacarejo Dois Irmãos,Novo Atacarejo Dois Irmãos,Novo Atacarejo Dois Irmãos,POINT(-34.9387414829303 -8.01555211059744),2025-11-18 07:12:53.298744 UTC,2025-11-13 14:30:04.654818 UTC,2025-11-18 09:35:05.801339 UTC,false,true,,4970c3c1-7f7a-4d9e-994d-582c0893f464,,-8.01555,-34.93874
"23204",01908895-f98b-4793-a430-c796bb525130,,"4373",true,Novo Atacarejo Dois Irmãos,Entrada,Novo Atacarejo Dois Irmãos,POINT(-34.9387321479374 -8.01552597261736),2025-11-18 07:12:53.298744 UTC,,2025-11-18 09:35:05.801339 UTC,true,true,,4970c3c1-7f7a-4d9e-994d-582c0893f464,,-8.01553,-34.93873
"23176",1196fa76-fc46-488c-bae0-1499b4e389b1,,"4373",true,Novo Atacarejo Dois Unidos,Entrada,,POINT(-34.9072593338903 -7.99788773211737),2025-11-18 07:12:53.298744 UTC,,2025-11-18 09:35:05.801339 UTC,true,true,,f9769bce-4871-45c4-9570-a7b8ee7f8eec,,-7.99789,-34.90726
"23274",3635a54b-1796-40c6-b722-2cd68305e867,,"4373",true,Novo Atacarejo Guabiraba,Entrada,Novo Atacarejo Guabiraba,POINT(-34.93417 -7.98631452702703),2025-11-18 07:12:53.298744 UTC,,2025-11-18 09:35:05.801339 UTC,true,true,,6170c30e-6dbd-4a8c-8b88-4c454c68f774,,-7.98631,-34.93417
"23175",7fc7c9df-3691-4719-be51-bd8f947c73f7,,"4373",true,Novo Atacarejo Muribeca,Entrada,,POINT(-34.9402211687909 -8.1579125303371),2025-11-18 07:12:53.298744 UTC,,2025-11-18 09:35:05.801339 UTC,true,true,,fa3ae44c-b5d3-4395-a242-41922cfaf8ad,,-8.15791,-34.94022
"23201",9200fe86-48da-44bb-86fb-68754924e6f2,,"4373",true,Novo Atacarejo Olinda,Entrada,,POINT(-34.854851189967 -7.98903777517867),2025-11-18 07:12:53.298744 UTC,,2025-11-18 09:35:05.801339 UTC,true,true,,923da46e-dae9-4a43-8b0a-a5c52c90e582,,-7.98904,-34.85485
"23184",d4d51124-6675-4a51-9c9b-ca0c52b9334c,,"4373",true,Novo Atacarejo Paulista,Novo Atacarejo Paulista,Novo Atacarejo Paulista,POINT(-34.8382348737553 -7.923786439367),2025-11-18 07:12:53.298744 UTC,2025-11-13 14:30:04.654818 UTC,2025-11-18 09:35:05.801339 UTC,false,true,,25c71f0f-3b34-481e-9616-79e9963845e4,,-7.92379,-34.83823
"23183",0be78ca7-643a-4454-a7b1-3d132868ac4c,,"4373",true,Novo Atacarejo Paulista,Entrada,Novo Atacarejo Paulista,POINT(-34.8382306730085 -7.92377430387625),2025-11-18 07:12:53.298744 UTC,,2025-11-18 09:35:05.801339 UTC,true,true,,25c71f0f-3b34-481e-9616-79e9963845e4,,-7.92377,-34.83823
"23456",b74c74c2-c633-4320-8ab1-d04bda431be0,,"4373",true,Novo Atacarejo Várzea,Entrada,Novo Atacarejo Várzea,POINT(-34.9554833001422 -8.03650983108107),2025-11-18 07:12:53.298744 UTC,,2025-11-18 09:35:05.801339 UTC,true,false,,c76a6d4a-af7d-48c7-9e31-8bafb266d162,,-8.03651,-34.95548
"308",90518783-4804-4195-b716-ad298541059f,,"4373",true,"Nível 2, North, Embarque",B2,Aeroporto Internacional do Recife,POINT(-34.918034 -8.130911),2025-11-18 07:12:53.298744 UTC,,2025-11-18 09:35:05.801339 UTC,true,false,,16a26765-89cb-4e1a-80c0-e6d1140fe915,,-8.13091,-34.91803
"6911",732eb735-0e17-41b0-b19e-8abb5a096d91,,"4373",true,"Nível 2, North, Embarque",B1,Aeroporto Internacional do Recife,POINT(-34.918166 -8.130536),2025-11-18 07:19:45.146794 UTC,,2025-11-18 09:35:05.801339 UTC,true,false,,16a26765-89cb-4e1a-80c0-e6d1140fe915,,-8.13054,-34.91817
"6912",48041864-cf2b-49df-81c3-c29417eb454c,,"4373",true,"Nível 2, North, Embarque",B3,Aeroporto Internacional do Recife,POINT(-34.917878 -8.131267),2025-11-18 07:12:53.298744 UTC,,2025-11-18 09:35:05.801339 UTC,true,false,,16a26765-89cb-4e1a-80c0-e6d1140fe915,,-8.13127,-34.91788
"6975",f28b9ccd-96d5-4357-a32c-e301812a6b8d,,"4373",true,"Nível 2, South, Embarque",B6,Aeroporto Internacional do Recife,POINT(-34.917555 -8.132398),2025-11-18 07:12:53.298744 UTC,,2025-11-18 09:35:05.801339 UTC,true,false,,16a26765-89cb-4e1a-80c0-e6d1140fe915,,-8.13240,-34.91756
"366",e20a9127-62f4-4209-bbfd-b31c40ca5ed1,,"4373",true,"Nível 2, South, Embarque",B5,Aeroporto Internacional do Recife,POINT(-34.917663 -8.132039),2025-11-18 07:12:53.298744 UTC,,2025-11-18 09:35:05.801339 UTC,true,false,,16a26765-89cb-4e1a-80c0-e6d1140fe915,,-8.13204,-34.91766
"365",ac16a36a-7ae1-495f-9af1-0b0253545499,,"4373",true,"Nível 2, South, Embarque",B4,Aeroporto Internacional do Recife,POINT(-34.917767 -8.131688),2025-11-18 07:12:53.298744 UTC,,2025-11-18 09:35:05.801339 UTC,true,false,,16a26765-89cb-4e1a-80c0-e6d1140fe915,,-8.13169,-34.91777
"23530",a33fcb98-e30b-4851-9bf3-59911933dfd7,,"4373",true,O Rei do Arrumadinho,Entrada,O Rei do Arrumadinho,POINT(-34.8902040024893 -8.00789612553343),2025-11-18 07:12:53.298744 UTC,,2025-11-18 09:35:05.801339 UTC,true,true,,9b54b130-cc49-4131-ae4d-1cab7edf3bfb,,-8.00790,-34.89020
"23311",c076a0e3-70c6-4f54-966c-a8d48d131991,,"4373",true,O quintal,Entrada,,POINT(-34.9240209332218 -8.0558249217391),2025-11-18 07:12:53.298744 UTC,,2025-11-18 09:35:05.801339 UTC,true,true,,fc01f0d4-eabd-426c-bdb0-a04cce888570,,-8.05582,-34.92402
"23236",851b1cd4-2d80-4e9e-af7a-5965831f8cff,,"4373",true,Olimpikus Hotel,Entrada,Olimpikus Hotel,POINT(-34.9460111317568 -8.09163786450925),2025-11-18 07:12:53.298744 UTC,,2025-11-18 09:35:05.801339 UTC,true,true,,3fa129b8-d2c3-4cf9-a58c-01aa29f94049,,-8.09164,-34.94601
"23237",283388df-4170-426a-b8b5-a2494694cfad,,"4373",true,Olimpikus Hotel,Olimpikus Hotel,Olimpikus Hotel,POINT(-34.9459999297653 -8.09164299875534),2025-11-18 07:12:53.298744 UTC,2025-11-13 14:30:04.654818 UTC,2025-11-18 09:35:05.801339 UTC,false,true,,3fa129b8-d2c3-4cf9-a58c-01aa29f94049,,-8.09164,-34.94600
"23029",4fb1eab3-ed1f-4d09-ac23-eb0e2cb31e1f,,"4373",true,PROCAPE,PROCAPE,PROCAPE,POINT(-34.8875504451203 -8.04921767120479),2025-11-18 07:12:53.298744 UTC,,2025-11-18 09:35:05.801339 UTC,true,true,,2a49aa4e-d13e-417c-b480-19a226962bb2,,-8.04922,-34.88755
"23104",8d881ec1-cf12-444d-a615-4b4e6f6af1d0,,"4373",true,Padaria Boa Viagem,Entrada,,POINT(-34.8921795527195 -8.11513949720926),2025-11-18 07:12:53.298744 UTC,,2025-11-18 09:35:05.801339 UTC,true,true,,9e46847f-9461-47ed-969f-5082d7a2dc9f,,-8.11514,-34.89218
"23305",9c883507-ed46-4788-a62b-f7e60aec2691,,"4373",true,Panificadora e Mercadindo Andrea,Entrada,Panificadora e Mercadindo Andrea,POINT(-34.9115872697368 -8.02283459726174),2025-11-18 07:12:53.298744 UTC,,2025-11-18 09:35:05.801339 UTC,true,true,,9fa74a59-9683-4a6d-8259-67439ac1f69c,,-8.02283,-34.91159
"23363",fbe88f23-edb8-4b62-bf46-633d3b76756f,,"4373",true,Parque Dona Lindu,Entrada pela Av. Visc. de Jequitinhonha,Parque Dona Lindu,POINT(-34.9046234246088 -8.14109209815078),2025-11-18 07:12:53.298744 UTC,,2025-11-18 09:35:05.801339 UTC,true,false,,f9398b3f-032f-49f3-9265-ff167b8454bc,,-8.14109,-34.90462
"23362",bc74062e-66e6-4693-b18f-cd24042a3126,,"4373",true,Parque Dona Lindu,Entrada pela Av. Boa Viagem,Parque Dona Lindu,POINT(-34.9036189793741 -8.14150657183499),2025-11-18 07:12:53.298744 UTC,,2025-11-18 09:35:05.801339 UTC,true,true,,f9398b3f-032f-49f3-9265-ff167b8454bc,,-8.14151,-34.90362
"23493",ff8d88c8-24f9-43bf-8026-2db888020468,,"4373",true,Parque Urbano da Macaxeira,Entrada,,POINT(-34.9316241632606 -8.01541203591182),2025-11-18 07:12:53.298744 UTC,,2025-11-18 09:35:05.801339 UTC,true,false,,917a14e7-0c2c-4d5b-829c-ab6ef3daffe5,,-8.01541,-34.93162
"23494",93bd3ef6-03f2-4fd8-83b9-92821d717448,,"4373",true,Parque Urbano da Macaxeira,Entrada principal,,POINT(-34.9322145857589 -8.01703754667656),2025-11-18 07:12:53.298744 UTC,,2025-11-18 09:35:05.801339 UTC,true,true,,917a14e7-0c2c-4d5b-829c-ab6ef3daffe5,,-8.01704,-34.93221
"23538",8e769bc3-3541-4f96-beda-6619ccbecb83,,"4373",true,Parque da Jaqueira,Entrada desde el R. do Futuro,,POINT(-34.904041577537 -8.03622427190436),2025-11-18 07:12:53.298744 UTC,,2025-11-18 09:35:05.801339 UTC,true,true,,21b4dd1e-f08d-4cfc-a0e2-c79f910e4df8,,-8.03622,-34.90404
"23539",e724d8c3-d75d-4322-b9d1-1e54cc60e571,,"4373",true,Parque da Jaqueira,Entrada desde el Av. Rui Barbosa,,POINT(-34.9053474998294 -8.03804762898839),2025-11-18 07:12:53.298744 UTC,,2025-11-18 09:35:05.801339 UTC,true,true,,21b4dd1e-f08d-4cfc-a0e2-c79f910e4df8,,-8.03805,-34.90535
"23013",ff38fbcc-5a6f-4cb1-95b5-b6604ee51a17,,"4373",true,Paulista North Way Shopping,Paulista North Way Shopping,,POINT(-34.878292052059 -7.9379750822159),2025-11-18 07:12:53.298744 UTC,,2025-11-18 09:35:05.801339 UTC,false,true,,1b5a7f5f-b8e9-4703-ba69-95926518e0fa,,-7.93798,-34.87829
"291",36da6ca9-1854-4519-9d89-6fc23734b9e4,,"4373",true,Paulista North Way Shopping,Entrada 2,Paulista North Way Shopping,POINT(-34.877945 -7.939502),2025-11-18 07:12:53.298744 UTC,,2025-11-18 09:35:05.801339 UTC,true,false,,1b5a7f5f-b8e9-4703-ba69-95926518e0fa,,-7.93950,-34.87794
"292",d2ad13cc-c9ab-4242-8ce3-788d08a41f12,,"4373",true,Paulista North Way Shopping,Entrada 1,Paulista North Way Shopping,POINT(-34.878359 -7.937961),2025-11-18 07:12:53.298744 UTC,,2025-11-18 09:35:05.801339 UTC,true,false,,1b5a7f5f-b8e9-4703-ba69-95926518e0fa,,-7.93796,-34.87836
"23246",edac7348-6586-4260-aae1-61edf5d7255a,,"4373",true,Peixinhos 1,Rua Mariano Teixeira 114,Peixinhos 1,POINT(-34.8720393385491 -8.01787934299431),2025-11-18 07:12:53.298744 UTC,,2025-11-18 09:35:05.801339 UTC,true,true,,1a1043d2-d19c-4b60-b2e0-be7e04da0f46,,-8.01788,-34.87204
"23303",4aeccc4d-d02b-40a8-abdb-5b30ba0cb443,,"4373",true,Peixinhos 2,Rua Gregório Bezerra 61,Peixinhos 2,POINT(-34.8722791038407 -8.01905200746799),2025-11-18 07:12:53.298744 UTC,,2025-11-18 09:35:05.801339 UTC,true,true,,959880be-b011-4f6c-b925-fe63f17c67e2,,-8.01905,-34.87228
"23295",9c9d73e3-cd3c-42be-8676-dd4a3475165a,,"4373",true,Penitenciária Agro Industrial São João (PAISJ),Entrada,Penitenciária Agro Industrial São João (PAISJ),POINT(-34.8760069310099 -7.7745989260313),2025-11-18 07:12:53.298744 UTC,,2025-11-18 09:35:05.801339 UTC,true,true,,f4e86f4b-0432-480f-bcfa-5706bcbd979d,,-7.77460,-34.87601
"283",1dd63570-2e0d-4999-a392-1438bd22fd66,,"4373",true,Piso 1,Entrada 4,Shopping Recife,POINT(-34.904959 -8.118063),2025-11-18 07:12:53.298744 UTC,,2025-11-18 09:35:05.801339 UTC,true,false,,cb3e6ba6-1312-40c2-b9af-fa4255cb4dff,,-8.11806,-34.90496
"285",0fbd6b13-5759-4081-9738-08dcf15a86ce,,"4373",true,Piso 1,Entrada 6,Shopping Recife,POINT(-34.902736 -8.11923),2025-11-18 07:12:53.298744 UTC,,2025-11-18 09:35:05.801339 UTC,true,false,,cb3e6ba6-1312-40c2-b9af-fa4255cb4dff,,-8.11923,-34.90274
"284",625ba6f6-b9fc-49cd-a825-13193de2a97b,,"4373",true,Piso 1,Entrada 5,Shopping Recife,POINT(-34.904048 -8.11824),2025-11-18 07:12:53.298744 UTC,,2025-11-18 09:35:05.801339 UTC,true,false,,cb3e6ba6-1312-40c2-b9af-fa4255cb4dff,,-8.11824,-34.90405
"348",b1013a8a-ae13-43fe-9be9-531a94e4be03,,"4373",true,Piso 2,Entrada 3,Shopping Recife,POINT(-34.90614 -8.119509),2025-11-18 07:12:53.298744 UTC,,2025-11-18 09:35:05.801339 UTC,true,false,,cb3e6ba6-1312-40c2-b9af-fa4255cb4dff,,-8.11951,-34.90614
"305",a3a50073-ba12-445e-8baa-3f1c25e5934c,,"4373",true,Piso 2,Entrada 7,Shopping Recife,POINT(-34.902844 -8.11993),2025-11-18 07:12:53.298744 UTC,,2025-11-18 09:35:05.801339 UTC,true,false,,cb3e6ba6-1312-40c2-b9af-fa4255cb4dff,,-8.11993,-34.90284
"306",e837b7b4-c5cb-43b6-97d3-9041aa6872da,,"4373",true,Piso 2,Entrada 2,Shopping Recife,POINT(-34.905429 -8.119942),2025-11-18 07:12:53.298744 UTC,,2025-11-18 09:35:05.801339 UTC,true,false,,cb3e6ba6-1312-40c2-b9af-fa4255cb4dff,,-8.11994,-34.90543
"304",a0cc28f5-e2c0-49a3-af5f-c488e67dd6f1,,"4373",true,Piso 2,Entrada 1,Shopping Recife,POINT(-34.9043048813692 -8.12008405873501),2025-11-18 07:12:53.298744 UTC,,2025-11-18 09:35:05.801339 UTC,true,false,,cb3e6ba6-1312-40c2-b9af-fa4255cb4dff,,-8.12008,-34.90430
"20779",f44ac2bf-361b-4ed6-9283-bf03eed4f8c8,,"4373",true,Plaza Casa Forte,Entrada,Plaza Casa Forte,POINT(-34.9127412193822 -8.03747582606045),2025-11-18 07:12:53.298744 UTC,,2025-11-18 09:35:05.801339 UTC,true,false,,eff8a342-7c0b-44f1-b6a0-553ad640131f,,-8.03748,-34.91274
"23130",babb948a-c06e-4d8a-bd70-07a15e7d772d,,"4373",true,Plaza Casa Forte,Plaza Casa Forte,Plaza Casa Forte,POINT(-34.9125316518492 -8.03685009068279),2025-11-18 07:12:53.298744 UTC,,2025-11-18 09:35:05.801339 UTC,false,true,,eff8a342-7c0b-44f1-b6a0-553ad640131f,,-8.03685,-34.91253
"20778",90e62969-67c6-42a8-be51-56c4d54a99b3,,"4373",true,Plaza Casa Forte,Entrada principal,Plaza Casa Forte,POINT(-34.9125554218873 -8.03683938059169),2025-11-18 07:12:53.298744 UTC,,2025-11-18 09:35:05.801339 UTC,true,false,,eff8a342-7c0b-44f1-b6a0-553ad640131f,,-8.03684,-34.91256
"23260",d59337dc-8ceb-4e61-8c48-6c95afc3d8a2,,"4373",true,Policlínica Agamenon Magalhães (24h),Emergencia,Policlínica Agamenon Magalhães (24h),POINT(-34.9050679302987 -8.08102137980085),2025-11-18 07:12:53.298744 UTC,,2025-11-18 09:35:05.801339 UTC,true,true,,06482952-5c9c-46dd-b578-bba155bf31f7,,-8.08102,-34.90507
"23024",991272f9-8702-455b-8b61-2a4c4c00346b,,"4373",true,Policlínica Amaury Coutinho,Policlínica Amaury Coutinho,Policlínica Amaury Coutinho,POINT(-34.8823369811785 -8.01598163026749),2025-11-18 07:12:53.298744 UTC,,2025-11-18 09:35:05.801339 UTC,true,true,,ae8f2c34-dda6-48b9-8fad-0cb91d8978a1,,-8.01598,-34.88234
"23518",0de0613a-9480-4848-bf46-a8717b260978,,"4373",true,Policlínica João de Barros Barreto,Entrada,,POINT(-34.849593168492 -8.01781085468894),2025-11-18 07:12:53.298744 UTC,,2025-11-18 09:35:05.801339 UTC,true,true,,9a2075f9-84a5-4b2c-947a-26ffc01581c5,,-8.01781,-34.84959
"23190",071371b0-e919-4e6d-a787-8ea8725523f6,,"4373",true,Policlínica Lessa de Andrade,Entrada,,POINT(-34.907077484879 -8.05859774592208),2025-11-18 07:12:53.298744 UTC,,2025-11-18 09:35:05.801339 UTC,true,true,,e7a9559d-fa4f-42e2-ac3a-2a9f6dc01920,,-8.05860,-34.90708
"23089",a03d4833-e232-4ff8-adb9-47259d4206ec,,"4373",true,Policlínica e Maternidade Professor Arnaldo Marques,Entrada,,POINT(-34.943981830111 -8.12054607826988),2025-11-18 07:12:53.298744 UTC,,2025-11-18 09:35:05.801339 UTC,true,true,,93affe76-5783-4a89-8fa9-308a0a204cae,,-8.12055,-34.94398
"23111",4b877caf-cc96-4c00-beca-f6888a2e6ac7,,"4373",true,Policlínica e Maternidade Professor Barros Lima,Entrada,,POINT(-34.9233189514231 -8.02075936005204),2025-11-18 07:12:53.298744 UTC,,2025-11-18 09:35:05.801339 UTC,true,true,,c10d0665-e1dc-4196-ae2f-c58a36c68e20,,-8.02076,-34.92332
"23354",4964e704-55af-4f87-9b7b-3ab5e0024618,,"4373",true,Praia de Piedade Condomínio Clube,Entrada,Praia de Piedade Condomínio Clube,POINT(-34.927393465505 -8.19047366376245),2025-11-18 07:12:53.298744 UTC,,2025-11-18 09:35:05.801339 UTC,true,true,,810d6d7b-85ac-4121-8ebe-29b78ff5511f,,-8.19047,-34.92739
"23025",d9bbb128-7941-4ab1-9480-b23e030b4965,,"4373",true,Praia do Quartel,Praia do Quartel,Praia do Quartel,POINT(-34.8386319024475 -7.99433566535257),2025-11-18 07:12:53.298744 UTC,,2025-11-18 09:35:05.801339 UTC,true,true,,a46fd4ab-04f3-4190-93bc-56add890e83a,,-7.99434,-34.83863
"23214",e23afe2b-0af1-423b-b4db-f27724508678,,"4373",true,Praça da UR5 - Ibura,Praça da UR5 - Ibura,Praça da UR5 - Ibura,POINT(-34.9486697812944 -8.13250388691322),2025-11-18 07:12:53.298744 UTC,2025-11-13 14:30:04.654818 UTC,2025-11-18 09:35:05.801339 UTC,false,true,,3f5d6fb5-d69a-4494-a7d8-657cd54c0dc6,,-8.13250,-34.94867
"23215",2f713ab7-4db9-489f-a3c0-de50d6da684b,,"4373",true,Praça da UR5 - Ibura,Entrada,Praça da UR5 - Ibura,POINT(-34.9486800497866 -8.13251322190611),2025-11-18 07:12:53.298744 UTC,,2025-11-18 09:35:05.801339 UTC,true,true,,3f5d6fb5-d69a-4494-a7d8-657cd54c0dc6,,-8.13251,-34.94868
"23030",ac97be26-fd86-44f4-8259-eb39a5af4998,,"4373",true,Praça do Carmo,Praça do Carmo,Praça do Carmo,POINT(-34.8485220721486 -8.01671428876226),2025-11-18 07:12:53.298744 UTC,,2025-11-18 09:35:05.801339 UTC,true,true,,f3d2190a-efea-4b50-96f6-8b29e9a83044,,-8.01671,-34.84852
"23174",0a20ed28-6e24-4958-b6f9-f1c16a71eef4,,"4373",true,Prefeitura do Recife,Entrada,,POINT(-34.8721166574301 -8.05455967599922),2025-11-18 07:12:53.298744 UTC,,2025-11-18 09:35:05.801339 UTC,true,true,,d4cd4b98-1d78-4bad-a6b9-c5c66f59da9d,,-8.05456,-34.87212
"23564",12665850-f471-43e1-8769-64a9b21d11f9,,"4373",true,Presídio Policial Penal Leonardo de Moura Lago,Entrada,Presídio Policial Penal Leonardo de Moura Lago,POINT(-34.9641341571729 -8.08489043258003),2025-11-18 07:12:53.298744 UTC,,2025-11-18 09:35:05.801339 UTC,true,true,,b397a38b-e4fe-47a1-bbb0-22b103385891,,-8.08489,-34.96413
"23023",f43e9276-e812-44c4-a438-54612c0dbadc,,"4373",true,Presídio de Igarassu,Presídio de Igarassu,Presídio de Igarassu,POINT(-34.9254757847521 -7.80418329807542),2025-11-18 07:12:53.298744 UTC,,2025-11-18 09:35:05.801339 UTC,true,true,,637fe4ad-6861-44a4-927a-f4482b6ffbeb,,-7.80418,-34.92548
"23473",53e45bd3-08ba-4ef7-a72f-33f5d066fa58,,"4373",true,Quadra do rotary/Alto do Pascoal,Entrada,Quadra do rotary/Alto do Pascoal,POINT(-34.9018852747155 -8.01520855218706),2025-11-18 07:12:53.298744 UTC,,2025-11-18 09:35:05.801339 UTC,true,false,,0589b5fa-5ecc-461a-b807-f285f9362ed0,,-8.01521,-34.90189
"23304",80313541-88aa-471e-8524-5149bb1e3d3d,,"4373",true,RESENHA 640,Entrada,,POINT(-34.887944258119 -8.02098624786712),2025-11-18 07:12:53.298744 UTC,,2025-11-18 09:35:05.801339 UTC,true,true,,cd91a8fb-c53e-4611-b8c2-0e38e61d0582,,-8.02099,-34.88794
"22381",7ce18cc8-582e-47ab-a44c-f32638f267cb,,"4373",true,Radisson Hotel Recife,Entrance,,POINT(-34.888525119863 -8.10766955460869),2025-11-18 07:12:53.298744 UTC,,2025-11-18 09:35:05.801339 UTC,true,true,,63c26954-ac14-4a7c-ba83-42c9f3bbd8ba,,-8.10767,-34.88853
"23110",b4656033-5f6b-4024-b5d9-e27e8489cecd,,"4373",true,Real Hospital Português,Entrada,,POINT(-34.8978242028893 -8.06355478238004),2025-11-18 07:12:53.298744 UTC,,2025-11-18 09:35:05.801339 UTC,true,true,,9f7b60be-31a8-4f90-8fa1-acbfffce8a43,,-8.06355,-34.89782
"23548",c98652f8-1039-419c-9a98-98bf19a5cc0d,,"4373",true,Residence Club Da. Genny André Gomes,Entrada,Residence Club Da. Genny André Gomes,POINT(-34.96736 -8.11498407272404),2025-11-18 07:12:53.298744 UTC,,2025-11-18 09:35:05.801339 UTC,true,false,,513eb0bd-9f37-4468-b9dc-24093abb219c,,-8.11498,-34.96736
"23560",80a15eae-b563-4939-9120-0d87314b0d86,,"4373",true,Residence Club Dr. Moacyr André Gomes,Entrada,Residence Club Dr. Moacyr André Gomes,POINT(-34.9665497226173 -8.11464054498577),2025-11-18 07:12:53.298744 UTC,,2025-11-18 09:35:05.801339 UTC,true,true,,10d14203-cd0c-4bee-be78-9605254eb362,,-8.11464,-34.96655
"23331",868d92fa-aac0-41d3-a5a1-1a2d07fa5b6f,,"4373",true,Residencial Algarve,Entrada,,POINT(-34.8642703396113 -7.94199133474582),2025-11-18 07:12:53.298744 UTC,,2025-11-18 09:35:05.801339 UTC,true,true,,e19b7d84-eb19-4336-b0b5-81fa4fd9ab91,,-7.94199,-34.86427
"23325",4f2e0681-4ae4-49f0-8705-c3ebf25dd92d,,"4373",true,Residencial Julia Beatriz,Entrada,NUResidencial Julia BeatrizLL,POINT(-34.848842916074 -7.96604740220483),2025-11-18 07:12:53.298744 UTC,,2025-11-18 09:35:05.801339 UTC,true,true,,6aa0d868-a727-4d1a-b932-6968a60dae3e,,-7.96605,-34.84884
"23774",14109991-0ed8-458b-8e6e-48678ef8347c,,"4373",true,Residencial Paulista,Entrada,,POINT(-34.8641958061531 -7.94183089950257),2025-11-06 09:59:20.967211 UTC,,2025-11-13 05:17:20.508846 UTC,true,false,,b22a161f-2218-4769-83fb-fb755fe9f3d9,,-7.94183,-34.86420
"23327",ad226c4b-2225-4551-acfc-a1b06ab74852,,"4373",true,Residencial Pontal do Atalaia,Entrada,Residencial Pontal do Atalaia,POINT(-34.8612286699858 -7.96610558854908),2025-11-18 07:12:53.298744 UTC,,2025-11-18 09:35:05.801339 UTC,true,true,,9bc4c89b-29c0-407e-852d-3950a8b5dbdb,,-7.96611,-34.86123
"23540",80f7f34f-bd66-4d6e-8785-345c4c39b2fb,,"4373",true,Residencial Primavera I,Entrada,,POINT(-34.9327973866916 -8.12918124688067),2025-11-18 07:12:53.298744 UTC,,2025-11-18 09:35:05.801339 UTC,true,true,,4696b285-4099-4194-af29-5228edaa7f2b,,-8.12918,-34.93280
"23454",7cf98c54-a8e0-423e-a5fe-7e8558a58d07,,"4373",true,Residencial Ruy Frazão,Rua Vinte e Um de Abril 773,Residencial Ruy Frazão,POINT(-34.914187992532 -8.07622967371977),2025-11-18 07:12:53.298744 UTC,,2025-11-18 09:35:05.801339 UTC,true,true,,f24a97dc-0c5a-4dff-9f30-618bfddf6128,,-8.07623,-34.91419
"23477",fe5e71aa-4eff-490f-929a-6f0e5a81e731,,"4373",true,Residencial Vila do Mar,Entrada,Residencial Vila do Mar,POINT(-34.8303326600285 -7.91494053698435),2025-11-18 07:12:53.298744 UTC,,2025-11-18 09:35:05.801339 UTC,true,true,,64eb8c1a-596a-4428-90c5-5a9ac7d6e90c,,-7.91494,-34.83033
"23366",711a2ebf-915b-4869-97a0-b1bc1f09a277,,"4373",true,Residêncial Bajado,Entrada,Residêncial Bajado,POINT(-34.9069148782006 -7.99309456881222),2025-11-18 07:12:53.298744 UTC,,2025-11-18 09:35:05.801339 UTC,true,true,,da837267-a635-46c3-aaf5-fe296b7812de,,-7.99309,-34.90691
"23558",6a69239c-b7ef-4e64-ae2d-6757737d6bc4,,"4373",true,Residêncial Mulheres de Tejucupapo,Entrada,,POINT(-34.9384936363461 -8.03598306740076),2025-11-18 07:12:53.298744 UTC,,2025-11-18 09:35:05.801339 UTC,true,true,,90adc485-c3da-4633-8e3a-ac6ee13cda8b,,-8.03598,-34.93849
"23321",c0c4ac93-7c47-4a18-8d5e-2d0975dbc8bf,,"4373",true,Restaurante Mustang,Entrada,Restaurante Mustang,POINT(-34.887726534495 -8.05899439900427),2025-11-18 07:12:53.298744 UTC,,2025-11-18 09:35:05.801339 UTC,true,true,,a5a0af6d-5ca0-44d4-ac8c-344330657535,,-8.05899,-34.88773
"23125",9ca0bcea-252f-4c4e-9174-85da090d7fdf,,"4373",true,Rio Mar Trade Center,Entrada,Rio Mar Trade Center,POINT(-34.8918431721195 -8.08680009068279),2025-11-18 07:12:53.298744 UTC,,2025-11-18 09:35:05.801339 UTC,true,true,,e401a414-7670-45ab-8a10-680a0a660ffc,,-8.08680,-34.89184
"23126",661a3179-ae5f-41cb-b7d8-70176e5765be,,"4373",true,Rio Mar Trade Center,Rio Mar Trade Center,Rio Mar Trade Center,POINT(-34.8918590416074 -8.08680009068279),2025-11-18 07:12:53.298744 UTC,2025-11-13 14:30:04.654818 UTC,2025-11-18 09:35:05.801339 UTC,false,true,,e401a414-7670-45ab-8a10-680a0a660ffc,,-8.08680,-34.89186
"23348",42f956e6-0826-4476-a8e9-d8e1298858bb,,"4373",true,Riomar Trade Center 4 e 5,Entrada,Riomar Trade Center 4 e 5,POINT(-34.8959617923186 -8.08459650960171),2025-11-18 07:12:53.298744 UTC,,2025-11-18 09:35:05.801339 UTC,true,true,,7655f4c5-9202-4e71-88d6-74cfc1f0476a,,-8.08460,-34.89596
"23277",66d8df22-0f58-442b-a7c4-44f13bc7418c,,"4373",true,SPA de PEIXINHOS,Entrada,,POINT(-34.87245364136 -8.01217657385853),2025-11-18 07:12:53.298744 UTC,,2025-11-18 09:35:05.801339 UTC,true,true,,a8c9b3dc-32b9-4fe3-9ca5-ff378a504c42,,-8.01218,-34.87245
"23483",79d1e1a1-e363-434f-a864-d632d945e0d0,,"4373",true,Sal e Brasa Recife,Entrada,,POINT(-34.9185933 -8.12189),2025-11-18 07:12:53.298744 UTC,,2025-11-18 09:35:05.801339 UTC,true,true,,54c8177a-671d-476a-b02e-12f9b1dac05b,,-8.12189,-34.91859
"23294",3827981c-7f7d-415e-b7a4-7ddb03446f1f,,"4373",true,Santa Casa de Misericórdia do Recife,Entrada,Santa Casa de Misericórdia do Recife,POINT(-34.8733733285917 -8.04229709637269),2025-11-18 07:12:53.298744 UTC,,2025-11-18 09:35:05.801339 UTC,true,true,,a77ba401-dc1d-423c-a88f-a5231959aca8,,-8.04230,-34.87337
"23360",c5bebf37-b5a8-4f63-bb72-f771f851d8c0,,"4373",true,Seu Visconde (Visca),Entrada,Seu Visconde (Visca),POINT(-34.9038286575391 -8.12613960348507),2025-11-18 07:12:53.298744 UTC,,2025-11-18 09:35:05.801339 UTC,true,true,,b5bcfff2-24b4-400e-89c1-cf57d74fecf4,,-8.12614,-34.90383
"293",0eeb1672-0b16-4252-9b2a-8deea694ace1,,"4373",true,Shopping BoaVista,Entrada (R. José de Alencar),Shopping BoaVista,POINT(-34.887837 -8.059751),2025-11-18 07:12:53.298744 UTC,,2025-11-18 09:35:05.801339 UTC,true,false,,302b38e7-a544-42c4-931b-16b2c40f5031,,-8.05975,-34.88784
"298",d7bdcc81-914b-4378-9311-0f5116361a85,,"4373",true,Shopping BoaVista,Entrada (Av. Conde da Boa Vista),Shopping BoaVista,POINT(-34.886956 -8.059428),2025-11-18 07:12:53.298744 UTC,,2025-11-18 09:35:05.801339 UTC,true,false,,302b38e7-a544-42c4-931b-16b2c40f5031,,-8.05943,-34.88696
"297",0881bf61-20db-4341-9b79-81c1873f3ca6,,"4373",true,Shopping BoaVista,Entrada 2,Shopping BoaVista,POINT(-34.886643 -8.059298),2025-11-18 07:12:53.298744 UTC,2025-08-13 11:23:41.792989 UTC,2025-11-18 09:35:05.801339 UTC,true,false,,302b38e7-a544-42c4-931b-16b2c40f5031,,-8.05930,-34.88664
"23021",3d027af7-abce-4938-a4b4-cd6528796362,,"4373",true,Shopping BoaVista,Shopping BoaVista,,POINT(-34.8869277691246 -8.05945511066928),2025-11-18 07:12:53.298744 UTC,,2025-11-18 09:35:05.801339 UTC,false,true,,302b38e7-a544-42c4-931b-16b2c40f5031,,-8.05946,-34.88693
"287",43a15a30-5693-47f7-9df7-cce5cee5a3ee,,"4373",true,Shopping BoaVista,Entrada (R. Corredor do Bpo.),Shopping BoaVista,POINT(-34.8864108513438 -8.05897732774215),2025-11-18 07:12:53.298744 UTC,,2025-11-18 09:35:05.801339 UTC,true,false,,302b38e7-a544-42c4-931b-16b2c40f5031,,-8.05898,-34.88641
"302",1638e9bd-8778-4c89-933a-48caf3e95ce2,,"4373",true,Shopping Guararapes,Entrada 3,Shopping Guararapes,POINT(-34.918546 -8.168279),2025-11-18 07:12:53.298744 UTC,,2025-11-18 09:35:05.801339 UTC,true,false,,fdb2762d-52fb-40db-9776-e7a6495a1413,,-8.16828,-34.91855
"300",fb0ccc4e-c942-414b-80d1-c66021526add,,"4373",true,Shopping Guararapes,Entrada 2,Shopping Guararapes,POINT(-34.918004 -8.167794),2025-11-18 07:12:53.298744 UTC,,2025-11-18 09:35:05.801339 UTC,true,false,,fdb2762d-52fb-40db-9776-e7a6495a1413,,-8.16779,-34.91800
"299",adec7c73-ea03-4f54-a318-072c9936d079,,"4373",true,Shopping Guararapes,Entrada 4,Shopping Guararapes,POINT(-34.919024 -8.168836),2025-11-18 07:12:53.298744 UTC,,2025-11-18 09:35:05.801339 UTC,true,false,,fdb2762d-52fb-40db-9776-e7a6495a1413,,-8.16884,-34.91902
"23012",761afba0-408b-49ea-a68c-5eed2f3bf224,,"4373",true,Shopping Guararapes,Shopping Guararapes,,POINT(-34.9181988071997 -8.16645229212418),2025-11-18 07:12:53.298744 UTC,,2025-11-18 09:35:05.801339 UTC,false,true,,fdb2762d-52fb-40db-9776-e7a6495a1413,,-8.16645,-34.91820
"301",a67785cd-bc40-4691-a492-1fb9fffefd53,,"4373",true,Shopping Guararapes,Entrada 1,Shopping Guararapes,POINT(-34.918233 -8.166207),2025-11-18 07:12:53.298744 UTC,,2025-11-18 09:35:05.801339 UTC,true,false,,fdb2762d-52fb-40db-9776-e7a6495a1413,,-8.16621,-34.91823
"23284",634c24f4-5d76-48fc-b40f-8179e2ff5bab,,"4373",true,Shopping Igarassu,Entrada,,POINT(-34.9094069612331 -7.82755289210068),2025-11-18 07:12:53.298744 UTC,,2025-11-18 09:35:05.801339 UTC,true,true,,51dcea80-8d17-439d-8e18-d2a5cd50753d,,-7.82755,-34.90941
"303",a64d545b-c339-4205-8e25-ebdf090eea5c,,"4373",true,Shopping Norte Janga,Entrada,Shopping Norte Janga,POINT(-34.82495 -7.935655),2025-11-18 07:12:53.298744 UTC,,2025-11-18 09:35:05.801339 UTC,true,false,,465b180c-10ae-4abd-9280-2e803c451d66,,-7.93566,-34.82495
"289",9f591461-4750-4bd1-8a42-4cb7a476a4ae,,"4373",true,Shopping Patteo Olinda,Shopping Patteo Olinda,Shopping Patteo Olinda,POINT(-34.840202 -7.993838),2025-11-18 07:12:53.298744 UTC,,2025-11-18 09:35:05.801339 UTC,true,true,,de006cc9-4688-4cd7-bdba-cf7edd0d9f43,,-7.99384,-34.84020
"275",89446546-1ac0-43cd-ba32-cfb4b48dd980,,"4373",true,Shopping Patteo Olinda,Saida,Shopping Patteo Olinda,POINT(-34.840437 -7.992849),2025-11-18 07:12:53.298744 UTC,2025-08-13 09:40:06.663128 UTC,2025-11-18 09:35:05.801339 UTC,true,false,,de006cc9-4688-4cd7-bdba-cf7edd0d9f43,,-7.99285,-34.84044
"290",547c3ad4-3a50-4d78-9334-c5d5a9f1679b,,"4373",true,Shopping Patteo Olinda,Entrada 2,Shopping Patteo Olinda,POINT(-34.840838 -7.994583),2025-11-18 07:12:53.298744 UTC,2025-08-13 09:40:13.293778 UTC,2025-11-18 09:35:05.801339 UTC,true,false,,de006cc9-4688-4cd7-bdba-cf7edd0d9f43,,-7.99458,-34.84084
"23003",e625a209-5dad-4203-983f-70f6db3bf0a6,,"4373",true,Shopping Recife,Entrada/Sul/Piso 2,,POINT(-34.904302134 -8.120014443),2025-11-18 07:12:53.298744 UTC,,2025-11-18 09:35:05.801339 UTC,false,true,,cb3e6ba6-1312-40c2-b9af-fa4255cb4dff,,-8.12001,-34.90430
"23004",e73d00f3-206f-4e5f-9b1e-4f0166f1d4ac,,"4373",true,Shopping Recife,Entrada/Norte/Piso 1,,POINT(-34.904994716 -8.118052507),2025-11-18 07:12:53.298744 UTC,,2025-11-18 09:35:05.801339 UTC,false,true,,cb3e6ba6-1312-40c2-b9af-fa4255cb4dff,,-8.11805,-34.90499
"23011",928ea25d-4871-4eb7-9575-3c333544fbd3,,"4373",true,Shopping RioMar,Shopping RioMar,,POINT(-34.8942518297704 -8.0853755390319),2025-11-18 07:12:53.298744 UTC,,2025-11-18 09:35:05.801339 UTC,false,true,,3770a864-8e0c-4d8e-b023-181de3b4680a,,-8.08538,-34.89425
"294",3f2d1ab3-cf3d-48e5-85cd-1c3c44915556,,"4373",true,Shopping RioMar,Entrada 3,Shopping RioMar,POINT(-34.89252 -8.08663),2025-11-18 07:12:53.298744 UTC,,2025-11-18 09:35:05.801339 UTC,true,false,,3770a864-8e0c-4d8e-b023-181de3b4680a,,-8.08663,-34.89252
"286",b4809393-8370-4048-a80e-7719217cac1c,,"4373",true,Shopping RioMar,Entrada 1,Shopping RioMar,POINT(-34.894255 -8.085436),2025-11-18 07:12:53.298744 UTC,,2025-11-18 09:35:05.801339 UTC,true,false,,3770a864-8e0c-4d8e-b023-181de3b4680a,,-8.08544,-34.89426
"296",a44d4d85-f458-443e-8d87-7b0ff98018c1,,"4373",true,Shopping RioMar,Entrada 4,Shopping RioMar,POINT(-34.895169 -8.085145),2025-11-18 07:12:53.298744 UTC,,2025-11-18 09:35:05.801339 UTC,true,false,,3770a864-8e0c-4d8e-b023-181de3b4680a,,-8.08515,-34.89517
"295",925f0f26-9f13-4ca7-93a9-1f208a8c3308,,"4373",true,Shopping RioMar,Entrada 2,Shopping RioMar,POINT(-34.892959 -8.086092),2025-11-18 07:12:53.298744 UTC,,2025-11-18 09:35:05.801339 UTC,true,false,,3770a864-8e0c-4d8e-b023-181de3b4680a,,-8.08609,-34.89296
"349",7bd97f38-d1d4-4f44-ac1b-0527aaeb991e,,"4373",true,Shopping Tacaruna,Entrada 1,Shopping Tacaruna,POINT(-34.872372 -8.037146),2025-11-18 07:12:53.298744 UTC,,2025-11-18 09:35:05.801339 UTC,true,false,,5e198a28-c36e-46a5-add8-d2c68e5755e4,,-8.03715,-34.87237
"23010",66a13372-1cc7-45f2-ab64-3032e1c7c26d,,"4373",true,Shopping Tacaruna,Shopping Tacaruna,,POINT(-34.872412513 -8.037196812),2025-11-18 07:12:53.298744 UTC,,2025-11-18 09:35:05.801339 UTC,false,true,,5e198a28-c36e-46a5-add8-d2c68e5755e4,,-8.03720,-34.87241
"288",0079192f-dbf6-497f-841d-d80448230f77,,"4373",true,Shopping Tacaruna,Entrada 3,Shopping Tacaruna,POINT(-34.873311 -8.038011),2025-11-18 07:12:53.298744 UTC,,2025-11-18 09:35:05.801339 UTC,true,false,,5e198a28-c36e-46a5-add8-d2c68e5755e4,,-8.03801,-34.87331
"23161",90d5bf29-98ea-4593-a897-f17fa45cb4f4,,"4373",true,Solar Coca-Cola (Prazeres),Entrada,,POINT(-34.9392530718521 -8.17081653919084),2025-11-18 07:12:53.298744 UTC,,2025-11-18 09:35:05.801339 UTC,true,true,,7f68c431-2032-40f2-b9b0-2347dc1940e2,,-8.17082,-34.93925
"23364",aa3d8680-3168-4686-8155-0c3137e310a4,,"4373",true,Speedmais,Entrada,Speedmais,POINT(-34.8719885295164 -8.06089599751067),2025-11-18 07:12:53.298744 UTC,,2025-11-18 09:35:05.801339 UTC,true,true,,42f3afd4-177e-4017-90ff-2c6d7a241826,,-8.06090,-34.87199
"23546",4e840864-e765-4b18-a6c9-044a57448b6a,,"4373",true,Splash Eco Park,Entrada,Splash Eco Park,POINT(-34.8800073648649 -7.91100369310099),2025-11-18 07:12:53.298744 UTC,,2025-11-18 09:35:05.801339 UTC,true,true,,4dc760b4-d1be-473c-84ad-63d900ad37a2,,-7.91100,-34.88001
"23529",3e3ae6df-5915-42e5-984e-60f62ad027ab,,"4373",true,Sport Clube do Recife,Ginásio Marcelino Lopes Entrada,Sport Clube do Recife,POINT(-34.9042782414651 -8.06445120732573),2025-11-18 07:12:53.298744 UTC,,2025-11-18 09:35:05.801339 UTC,true,false,,08ad938f-c66e-4d8d-9541-b9b9866a4558,,-8.06445,-34.90428
"23528",296aa8fd-9719-4fba-8bda-1c18cbebb09e,,"4373",true,Sport Clube do Recife,Entrada,Sport Clube do Recife,POINT(-34.9045844292318 -8.06143320412519),2025-11-18 07:12:53.298744 UTC,,2025-11-18 09:35:05.801339 UTC,true,false,,08ad938f-c66e-4d8d-9541-b9b9866a4558,,-8.06143,-34.90458
"23352",e7eb841d-997c-469d-b0ff-8fa3afec278c,,"4373",true,Status Motel Perimetral,Entrada,Status Motel Perimetral,POINT(-34.8738231721195 -7.9986061628734),2025-11-18 07:12:53.298744 UTC,,2025-11-18 09:35:05.801339 UTC,true,true,,b03316d1-421e-4e01-aa58-75e83fb1e1a6,,-7.99861,-34.87382
"23460",28cfccf1-8f4c-4db8-8d4b-e9c62c5f96a1,,"4373",true,Supermercado 5 Estrelas,Entrada,Supermercado 5 Estrelas,POINT(-34.8723476662518 -8.01520403760668),2025-11-18 07:12:53.298744 UTC,,2025-11-18 09:35:05.801339 UTC,true,true,,b81cef71-34c6-471c-820d-4fed8e23fc7a,,-8.01520,-34.87235
"23153",1612a9a3-0e7f-4a16-a4c5-301e6ce04a89,,"4373",true,Supermercado Arco-Mix - Beberibe,Entrada,Supermercado Arco-Mix - Beberibe,POINT(-34.8959801529161 -8.00134185455192),2025-11-18 07:12:53.298744 UTC,,2025-11-18 09:35:05.801339 UTC,true,true,,26c22e93-fe18-446a-b8e7-de663e616107,,-8.00134,-34.89598
"23154",080ae51a-b85a-49e2-9bbb-d5d8c6b979c0,,"4373",true,Supermercado Arco-Mix - Beberibe,Supermercado Arco-Mix - Beberibe,Supermercado Arco-Mix - Beberibe,POINT(-34.8959731516714 -8.0013311193101),2025-11-18 07:12:53.298744 UTC,2025-11-13 14:30:04.654818 UTC,2025-11-18 09:35:05.801339 UTC,false,true,,26c22e93-fe18-446a-b8e7-de663e616107,,-8.00133,-34.89597
"23282",c58b4da2-bbca-41ed-bab8-b08e8d8af2bb,,"4373",true,Supermercado Arco-Mix Cavaleiro,Entrada,Supermercado Arco-Mix Cavaleiro,POINT(-34.9723545848151 -8.092501003734),2025-11-18 07:12:53.298744 UTC,,2025-11-18 09:35:05.801339 UTC,true,false,,5da94dfa-ca08-47d1-adf6-085572bacda4,,-8.09250,-34.97235
"23177",e5e4443e-6af8-4a9d-9cad-4a53beb7990f,,"4373",true,Supermercado Arco-Mix Prazeres,Entrada,,POINT(-34.9248152631402 -8.16363041744554),2025-11-18 07:12:53.298744 UTC,,2025-11-18 09:35:05.801339 UTC,true,true,,7bbdc035-666a-4ba1-842b-772e3e28d16e,,-8.16363,-34.92482
"23342",9efc9be2-9fb3-4b27-ac63-d2ce5b041627,,"4373",true,Supermercado Kanela Varadouro Olinda,Entrada,Supermercado Kanela Varadouro Olinda,POINT(-34.8569287855619 -8.01077007023471),2025-11-18 07:12:53.298744 UTC,,2025-11-18 09:35:05.801339 UTC,true,false,,efd7a15c-7628-41c9-9a1b-df70e530fe36,,-8.01077,-34.85693
"23234",4bf5a8c9-4c9c-48b8-8978-4f22f263a0f9,,"4373",true,Terminal Integrado Macaxeira,Entrada,Terminal Integrado Macaxeira,POINT(-34.9379716642959 -8.00899053342815),2025-11-18 07:12:53.298744 UTC,,2025-11-18 09:35:05.801339 UTC,true,true,,e5f0a151-4161-4830-bf56-4c3750eb2278,,-8.00899,-34.93797
"23235",620e57a0-619d-482b-af9f-9bf6bcd208a0,,"4373",true,Terminal Integrado Macaxeira,Terminal Integrado Macaxeira,Terminal Integrado Macaxeira,POINT(-34.9379884672831 -8.00899240042673),2025-11-18 07:12:53.298744 UTC,2025-11-13 14:30:04.654818 UTC,2025-11-18 09:35:05.801339 UTC,false,true,,e5f0a151-4161-4830-bf56-4c3750eb2278,,-8.00899,-34.93799
"23147",63402b4a-9f58-46b4-8331-9385c6412932,,"4373",true,Terminal Integrado Pelópidas Silveira,Entrada,,POINT(-34.8780104731241 -7.94727921602201),2025-11-18 07:12:53.298744 UTC,,2025-11-18 09:35:05.801339 UTC,true,true,,4b9e5380-5f1f-41eb-8898-f3119bf1e84e,,-7.94728,-34.87801
"23555",827a67c6-44eb-4504-babe-6c60a5ff1015,,"4373",true,Terminal Integrado Rio Doce,Entrada,,POINT(-34.8508950394134 -7.96076810865494),2025-11-18 07:12:53.298744 UTC,,2025-11-18 09:35:05.801339 UTC,true,true,,1f84d8a1-55e3-4b88-80ef-4b9c73ec30d1,,-7.96077,-34.85090
"23217",e664585c-711b-4c88-b50c-f886bdea2f3d,,"4373",true,Terminal Integrado Xambá,Terminal Integrado Xambá,Terminal Integrado Xambá,POINT(-34.8924892398649 -8.00171300986841),2025-11-18 07:12:53.298744 UTC,2025-11-13 14:30:04.654818 UTC,2025-11-18 09:35:05.801339 UTC,false,true,,c641930e-e2a1-4c2e-b119-fb843d1f36a9,,-8.00171,-34.89249
"23218",6407b9e3-d0f5-47e1-b433-5dbfb8fb3e3c,,"4373",true,Terminal Integrado Xambá,Entrada,Terminal Integrado Xambá,POINT(-34.8924813051209 -8.00170274137624),2025-11-18 07:12:53.298744 UTC,,2025-11-18 09:35:05.801339 UTC,true,true,,c641930e-e2a1-4c2e-b119-fb843d1f36a9,,-8.00170,-34.89248
"23302",3fd3653c-21c0-4d9e-b80e-86de9c730dfc,,"4373",true,Terminal Integrado de Camaragibe,Entrada,Terminal Integrado de Camaragibe,POINT(-34.9954338620199 -8.02519448168563),2025-11-18 07:12:53.298744 UTC,,2025-11-18 09:35:05.801339 UTC,true,true,,24f47791-7333-4f8c-9edc-37cdd203d6e7,,-8.02519,-34.99543
"23275",84f21edc-5e18-4d3c-8aa8-148aebaecdb7,,"4373",true,Terminal Jardim Monte Verde,Zona de taxis,Terminal Jardim Monte Verde,POINT(-34.9589466749644 -8.1216668029872),2025-11-18 07:12:53.298744 UTC,,2025-11-18 09:35:05.801339 UTC,true,false,,1e4e9a25-b975-416d-b1c6-a0dc3139208e,,-8.12167,-34.95895
"23280",35210f69-7f16-4185-a6ee-9c451bdba23e,,"4373",true,Terminal Marcos Freire,Entrada,Terminal Marcos Freire,POINT(-34.9761550640114 -8.13388893847795),2025-11-18 07:12:53.298744 UTC,,2025-11-18 09:35:05.801339 UTC,true,true,,84a17950-1b3c-4768-823a-6c1bc176e7ac,,-8.13389,-34.97616
"23144",5c90ae1f-b0d3-4e20-9f0b-709325f31927,,"4373",true,Terminal Rodoviário do Recife - TIP,Terminal Rodoviário do Recife - TIP,Terminal Rodoviário do Recife - TIP,POINT(-34.9822581330014 -8.0636184050498),2025-11-18 07:12:53.298744 UTC,2025-11-13 14:30:04.654818 UTC,2025-11-18 09:35:05.801339 UTC,false,true,,e3b480ef-0ee1-4a5a-aee8-dd65deeff415,,-8.06362,-34.98226
"20781",4d6f6121-02a1-45c5-a024-5494f7d239f6,,"4373",true,Terminal Rodoviário do Recife - TIP,Entrada,Terminal Rodoviário do Recife - TIP,POINT(-34.9822965697056 -8.06362135849518),2025-11-18 07:12:53.298744 UTC,,2025-11-18 09:35:05.801339 UTC,true,true,,e3b480ef-0ee1-4a5a-aee8-dd65deeff415,,-8.06362,-34.98230
"23251",319fecbf-9e72-4958-8f00-657c41e43177,,"4373",true,Terminal de Três Carneiros Baixo,Entrada,,POINT(-34.9563029853733 -8.127906832395),2025-11-18 07:12:53.298744 UTC,,2025-11-18 09:35:05.801339 UTC,true,true,,ea23d0f3-8e79-4812-925a-433fa1520bbe,,-8.12791,-34.95630
"23276",3965765e-5835-429b-aac9-75537a556eb3,,"4373",true,Terminal de ônibus de Dois Unidos,Zona de taxis,Terminal de ônibus de Dois Unidos,POINT(-34.9155986699858 -7.99016407272404),2025-11-18 07:12:53.298744 UTC,,2025-11-18 09:35:05.801339 UTC,true,false,,ed069828-9092-4ea9-8e8f-717c202b100d,,-7.99016,-34.91560
"23504",c024e6f9-4888-4106-84b8-f4b7ff1b0500,,"4373",true,Terminal integrado da PE-15,Entrada Oeste,Terminal integrado da PE-15,POINT(-34.8566496532717 -7.98259810810811),2025-11-18 07:12:53.298744 UTC,,2025-11-18 09:35:05.801339 UTC,true,false,,6ccd5452-58ee-4df0-af66-e1056f3b75e1,,-7.98260,-34.85665
"23503",d1d30888-5f75-44ac-86a5-fb2fde2b1938,,"4373",true,Terminal integrado da PE-15,Entrada Leste,Terminal integrado da PE-15,POINT(-34.8561324946657 -7.98225084637269),2025-11-18 07:12:53.298744 UTC,,2025-11-18 09:35:05.801339 UTC,true,false,,6ccd5452-58ee-4df0-af66-e1056f3b75e1,,-7.98225,-34.85613
"23155",43f2e890-b020-4479-a94c-2430a842a258,,"4373",true,Tititi Motel,Entrada,,POINT(-34.8723595341137 -7.99732239252932),2025-11-18 07:12:53.298744 UTC,,2025-11-18 09:35:05.801339 UTC,true,true,,f1ad36b3-452c-4835-8ecb-e8c42908bf58,,-7.99732,-34.87236
"23346",fb932e2e-623f-45b7-b7e2-f7e614dff137,,"4373",true,Trevo Supermercados COHAB Recife,Entrada,Trevo Supermercados COHAB Recife,POINT(-34.9487539073613 -8.13316788717995),2025-11-18 07:12:53.298744 UTC,,2025-11-18 09:35:05.801339 UTC,true,true,,c8d4eaf8-607c-4a16-8030-e74655ec4035,,-8.13317,-34.94875
"23142",367b817b-8125-4bbb-9a86-19d14c0f7ab7,,"4373",true,UNIBRA - Centro Universitário Brasileiro,Entrada,UNIBRA - Centro Universitário Brasileiro,POINT(-34.8933539900427 -8.05379881045519),2025-11-18 07:12:53.298744 UTC,,2025-11-18 09:35:05.801339 UTC,true,true,,17b29ee5-3292-4abb-9182-a653aeed5c2f,,-8.05380,-34.89335
"23143",462eda41-f690-4ca8-967d-8d08502b5033,,"4373",true,UNIBRA - Centro Universitário Brasileiro,UNIBRA - Centro Universitário Brasileiro,UNIBRA - Centro Universitário Brasileiro,POINT(-34.8933343865576 -8.05380161095306),2025-11-18 07:12:53.298744 UTC,2025-11-13 14:30:04.654818 UTC,2025-11-18 09:35:05.801339 UTC,false,true,,17b29ee5-3292-4abb-9182-a653aeed5c2f,,-8.05380,-34.89333
"23533",a52aba7c-ba14-4bb2-82fa-53bbd3e19803,,"4373",true,UNICAP,International School,UNICAP,POINT(-34.8877142585349 -8.05579802631578),2025-11-18 07:12:53.298744 UTC,,2025-11-18 09:35:05.801339 UTC,true,false,,5cf37615-3825-4ce0-8f99-f00a5e3ada0d,,-8.05580,-34.88771
"23534",95151528-89e0-4a97-a49c-10c5bacb05b3,,"4373",true,UNICAP,Entrada,UNICAP,POINT(-34.8885450729018 -8.05531073968706),2025-11-18 07:12:53.298744 UTC,,2025-11-18 09:35:05.801339 UTC,true,false,,5cf37615-3825-4ce0-8f99-f00a5e3ada0d,,-8.05531,-34.88855
"23535",fc352ef3-a684-4bec-b3da-3bf6f233a048,,"4373",true,UNICAP,Bloco G,UNICAP,POINT(-34.8870720110242 -8.05414386557612),2025-11-18 07:12:53.298744 UTC,,2025-11-18 09:35:05.801339 UTC,true,false,,5cf37615-3825-4ce0-8f99-f00a5e3ada0d,,-8.05414,-34.88707
"23290",ad48529c-ba7c-4d00-b27d-c0a253cc8c69,,"4373",true,UNINASSAU - Boa Viagem,Entrada,,POINT(-34.9083877383959 -8.12352948444179),2025-11-18 07:12:53.298744 UTC,,2025-11-18 09:35:05.801339 UTC,true,false,,2ab67781-3d62-4193-943f-fe793baf5629,,-8.12353,-34.90839
"23289",d760af5c-f872-4828-a8e3-62fbb530fe6d,,"4373",true,UNINASSAU - Boa Viagem,Entrada principal,,POINT(-34.9078713439976 -8.12349236318247),2025-11-18 07:12:53.298744 UTC,,2025-11-18 09:35:05.801339 UTC,true,true,,2ab67781-3d62-4193-943f-fe793baf5629,,-8.12349,-34.90787
"23281",27e2eebd-1a8c-4219-8fa4-45fea7852f94,,"4373",true,UNINASSAU Graças - Bloco E,Entrada,UNINASSAU Graças - Bloco E,POINT(-34.9028402560455 -8.05518510135135),2025-11-18 07:12:53.298744 UTC,,2025-11-18 09:35:05.801339 UTC,true,true,,e6c2551a-874d-41ac-99d3-d189717b3fb8,,-8.05519,-34.90284
"23117",c4f8d6ff-0848-4b08-b905-a3ed80e67300,,"4373",true,UPA - Caxangá,Ambulatorio,UPA - Caxangá,POINT(-34.9577057414651 -8.02996122688478),2025-11-18 07:12:53.298744 UTC,,2025-11-18 09:35:05.801339 UTC,true,false,,db2acdb6-f736-4545-8fcb-5c8880531e81,,-8.02996,-34.95771
"23115",3bfe5008-1ce9-4dcd-a1fe-27f3e4e6f6a2,,"4373",true,UPA - Caxangá,Entrada,UPA - Caxangá,POINT(-34.9577654854196 -8.02961676564723),2025-11-18 07:12:53.298744 UTC,,2025-11-18 09:35:05.801339 UTC,true,false,,db2acdb6-f736-4545-8fcb-5c8880531e81,,-8.02962,-34.95777
"23116",b6f88803-5949-49d9-aa17-64cedcc1bd1e,,"4373",true,UPA - Caxangá,UPA - Caxangá,UPA - Caxangá,POINT(-34.9577402809388 -8.02954581970129),2025-11-18 07:12:53.298744 UTC,,2025-11-18 09:35:05.801339 UTC,false,true,,db2acdb6-f736-4545-8fcb-5c8880531e81,,-8.02955,-34.95774
"23106",6355c988-819b-4693-ac34-5b6ba12c64f4,,"4373",true,UPA - Tipo III Lagoa Encantada,Entrada,,POINT(-34.9496093733894 -8.12877470416365),2025-11-18 07:12:53.298744 UTC,,2025-11-18 09:35:05.801339 UTC,true,true,,05e9711e-7f40-4225-8d82-304fa70f7cc2,,-8.12877,-34.94961
"23182",647f58ea-2aa9-4ebd-b4dd-71ad9a1d0d8d,,"4373",true,UPA 24h Germano Coelho - Rio Doce,UPA 24h Germano Coelho - Rio Doce,NUUPA 24h Germano Coelho - Rio DoceLL,POINT(-34.8442502560455 -7.96270301120199),2025-11-18 07:12:53.298744 UTC,,2025-11-18 09:35:05.801339 UTC,false,true,,781b72da-98b8-432a-8847-6da7b5b9ec06,,-7.96270,-34.84425
"23180",61a39a90-a674-46fa-a176-9b1d0377372f,,"4373",true,UPA 24h Germano Coelho - Rio Doce,Emergencia,UPA 24h Germano Coelho - Rio Doce,POINT(-34.8443697439545 -7.96240149093172),2025-11-18 07:12:53.298744 UTC,,2025-11-18 09:35:05.801339 UTC,true,false,,781b72da-98b8-432a-8847-6da7b5b9ec06,,-7.96240,-34.84437
"23181",945f4c73-3e05-485b-8cba-46c711bcf119,,"4373",true,UPA 24h Germano Coelho - Rio Doce,Entrada,UPA 24h Germano Coelho - Rio Doce,POINT(-34.8442539900427 -7.96267967371977),2025-11-18 07:12:53.298744 UTC,,2025-11-18 09:35:05.801339 UTC,true,false,,781b72da-98b8-432a-8847-6da7b5b9ec06,,-7.96268,-34.84425
"23156",9935e1ac-4d79-495f-bf45-ea72f74e6f74,,"4373",true,UPA Curado,Entrada,,POINT(-34.9965906641071 -8.08069742525544),2025-11-18 07:12:53.298744 UTC,,2025-11-18 09:35:05.801339 UTC,true,true,,6033d28b-8a9c-4784-b874-abe5ee61a65c,,-8.08070,-34.99659
"23353",74417bf3-013a-4681-a759-b891bede7f72,,"4373",true,UPA Engenho Velho,Entrada,UPA Engenho Velho,POINT(-35.0066306650071 -8.1107896363798),2025-11-18 07:12:53.298744 UTC,,2025-11-18 09:35:05.801339 UTC,true,true,,c00e4e17-d59a-40c4-9245-c4facd28e054,,-8.11079,-35.00663
"23095",325b83ab-0879-45ef-8f41-d4839388c919,,"4373",true,UPA Imbirimbeira,Ambulâncias,,POINT(-34.9138983530182 -8.12124828815675),2025-11-18 07:12:53.298744 UTC,,2025-11-18 09:35:05.801339 UTC,true,true,,6a06bc6f-9e4e-4a16-9538-1aa9739f70f5,,-8.12125,-34.91390
"23094",d3ff835f-9645-4c34-8bbf-ea29d10774a6,,"4373",true,UPA Imbirimbeira,Entrada,,POINT(-34.9140107722896 -8.12089325976693),2025-11-18 07:12:53.298744 UTC,,2025-11-18 09:35:05.801339 UTC,true,true,,6a06bc6f-9e4e-4a16-9538-1aa9739f70f5,,-8.12089,-34.91401
"22257",02bef8d3-1964-493a-8653-1e09ea7b0d80,,"4373",true,UPA Nova Descoberta – Solano Trindade,Entrada,UPA Nova Descoberta – Solano Trindade,POINT(-34.919762723 -8.002120422),2025-11-18 07:12:53.298744 UTC,,2025-11-18 09:35:05.801339 UTC,true,true,,3afd4b95-db9e-4df9-a7f4-1eea259415b3,,-8.00212,-34.91976
"23124",2338b444-a3c2-4642-9798-8e10e3daa745,,"4373",true,UPA Olinda,UPA Olinda,NUUPA OlindaLL,POINT(-34.859630512091 -7.9796501155761),2025-11-18 07:12:53.298744 UTC,2025-11-13 14:30:04.654818 UTC,2025-11-18 09:35:05.801339 UTC,false,true,,bb166883-d4c0-4f59-9f25-fa5199e6f208,,-7.97965,-34.85963
"23123",42c3d72f-83dd-4ccb-bd66-292fb1ce4a72,,"4373",true,UPA Olinda,Entrada,UPA Olinda,POINT(-34.8596566500711 -7.97963517958748),2025-11-18 07:12:53.298744 UTC,,2025-11-18 09:35:05.801339 UTC,true,true,,bb166883-d4c0-4f59-9f25-fa5199e6f208,,-7.97964,-34.85966
"23145",311638cb-dd50-4b5b-944c-f2087d92cb5e,,"4373",true,UPA Paulista,Emergência,,POINT(-34.8904802154244 -7.94817892058153),2025-11-18 07:12:53.298744 UTC,,2025-11-18 09:35:05.801339 UTC,true,true,,21991765-4756-4cb7-b10e-40d17221bd32,,-7.94818,-34.89048
"23146",0d3520b5-9135-4d6f-af85-40a35c2ddd0a,,"4373",true,UPA Paulista,Entrada,,POINT(-34.890130892969 -7.94805018876498),2025-11-18 07:12:53.298744 UTC,,2025-11-18 09:35:05.801339 UTC,true,true,,21991765-4756-4cb7-b10e-40d17221bd32,,-7.94805,-34.89013
"23150",d978d372-f10d-4f23-bd4a-8abad99fa8f1,,"4373",true,UPA Torrões - Unidade de Pronto Atendimento Dulce Sampaio,Urgência,,POINT(-34.9343004801276 -8.06318910932021),2025-11-18 07:12:53.298744 UTC,,2025-11-18 09:35:05.801339 UTC,true,false,,031dac01-7319-4465-a03d-2c1c24cfaab6,,-8.06319,-34.93430
"23747",9b6f5be2-4692-44cf-8782-7dede6c5d4ca,,"4373",true,UPA Torrões - Unidade de Pronto Atendimento Dulce Sampaio,Entrada,,POINT(-34.9340892764144 -8.06292859734709),2025-11-03 15:15:24.577964 UTC,,2025-11-04 05:55:12.270883 UTC,true,true,,031dac01-7319-4465-a03d-2c1c24cfaab6,,-8.06293,-34.93409
"23337",c9954ddc-48ec-40cc-9f9b-f2fc2539cea3,,"4373",true,UPAE - Unidade de Pronto Atendimento Especializado,Entrada,UPAE - Unidade de Pronto Atendimento Especializado,POINT(-34.9365581454481 -8.11000009512802),2025-11-18 07:12:53.298744 UTC,,2025-11-18 09:35:05.801339 UTC,true,true,,52a18a5a-5918-4785-8551-3ec55d6733a4,,-8.11000,-34.93656
"23279",4adcaa27-d3ba-4534-ac7a-1bcfc3b4d6eb,,"4373",true,UPAE Mustardinha,Entrada,,POINT(-34.9171308536016 -8.06887481299067),2025-11-18 07:12:53.298744 UTC,,2025-11-18 09:35:05.801339 UTC,true,true,,0d6e50ce-035a-4920-875d-a0d6e681deb8,,-8.06887,-34.91713
"23521",75ace6c0-2957-438d-b1fc-88ff76d21827,,"4373",true,USF - Casarão do Cordeiro,Entrada,USF - Casarão do Cordeiro,POINT(-34.92155310633 -8.04481859619488),2025-11-18 07:12:53.298744 UTC,,2025-11-18 09:35:05.801339 UTC,true,false,,a26e86f2-1dd0-4827-a0fd-ab8fbb64faa4,,-8.04482,-34.92155
"23242",dc5215ce-8808-4827-8afd-262848b59743,,"4373",true,Unibra Campus I,Entrada,Unibra Campus I,POINT(-34.8919230938834 -8.05266646870554),2025-11-18 07:12:53.298744 UTC,,2025-11-18 09:35:05.801339 UTC,true,true,,9117d6b8-56e5-41aa-a311-cda8c1314d44,,-8.05267,-34.89192
"23243",15e71b71-d6a5-4b34-8475-a48e71380b02,,"4373",true,Unibra Campus I,Unibra Campus I,Unibra Campus I,POINT(-34.8919034903983 -8.05267206970128),2025-11-18 07:12:53.298744 UTC,2025-09-02 10:03:43.317514 UTC,2025-11-18 09:35:05.801339 UTC,false,true,,9117d6b8-56e5-41aa-a311-cda8c1314d44,,-8.05267,-34.89190
"23185",5b0b4610-e5d4-436a-adc6-26a7f4cb8f10,,"4373",true,Unibra Campus III,Entrada,,POINT(-34.8927708694741 -8.05401820115544),2025-11-18 07:12:53.298744 UTC,,2025-11-18 09:35:05.801339 UTC,true,true,,1e162e87-20fe-4a2a-9a22-d89bed1f4125,,-8.05402,-34.89277
"23496",ff0937de-d47b-4a0f-9361-42b70be4863b,,"4373",true,Unimed Recife Ambulatório HUR III,Entrada torre 2,,POINT(-34.8916177207863 -8.06463590300338),2025-11-18 07:12:53.298744 UTC,,2025-11-18 09:35:05.801339 UTC,true,true,,3e35bd54-dca2-4ec8-97da-adf7752a4e7e,,-8.06464,-34.89162
"23497",3e63f0b4-7cc6-4407-a4f0-3e73b3dd7645,,"4373",true,Unimed Recife Ambulatório HUR III,Emergência,,POINT(-34.8918072310513 -8.06484812583705),2025-11-18 07:12:53.298744 UTC,,2025-11-18 09:35:05.801339 UTC,true,false,,3e35bd54-dca2-4ec8-97da-adf7752a4e7e,,-8.06485,-34.89181
"23498",4f4e872d-7be5-4481-bf3c-31f14586113b,,"4373",true,Unimed Recife Ambulatório HUR III,Entrada Torre 1,,POINT(-34.8921235171489 -8.06504093794912),2025-11-18 07:12:53.298744 UTC,,2025-11-18 09:35:05.801339 UTC,true,true,,3e35bd54-dca2-4ec8-97da-adf7752a4e7e,,-8.06504,-34.89212
"23286",e5b5d6a1-6079-4a8b-9758-1bf058049451,,"4373",true,Upa,Entrada,,POINT(-34.9341182464591 -8.21903947661735),2025-11-18 07:12:53.298744 UTC,,2025-11-18 09:35:05.801339 UTC,true,true,,65f56d76-8397-46f3-9c41-b63c37e1237f,,-8.21904,-34.93412
"23253",aec017ca-1aeb-46d0-8d61-80b4b65e91c7,,"4373",true,Viashow,Entrada,,POINT(-34.8953720401928 -8.00772608460772),2025-11-18 07:12:53.298744 UTC,,2025-11-18 09:35:05.801339 UTC,true,true,,778a6450-37eb-4555-85e2-5309a8aabf18,,-8.00773,-34.89537
"23479",47109282-c7b7-4966-8431-c96af44532f7,,"4373",true,Vila Olímpica,Entrada,Vila Olímpica,POINT(-34.8475034903983 -7.95866494843527),2025-11-18 07:12:53.298744 UTC,,2025-11-18 09:35:05.801339 UTC,true,true,,ddbc1b8d-8c8f-40a2-b675-8a8117edd1cc,,-7.95866,-34.84750
"23339",c93fb6dc-e2b5-4d9c-a094-364866cff147,,"4373",true,Zeferino Agra,Rua Zeferino Agra 318,Zeferino Agra,POINT(-34.8917990665007 -8.02170640647226),2025-11-18 07:12:53.298744 UTC,,2025-11-18 09:35:05.801339 UTC,true,true,,e0f1f108-ed73-4c4e-b6fd-ca0a5c909c83,,-8.02171,-34.89180
"23563",8fdd309c-1b74-4d37-b81e-87341edca390,,"4373",true,hotel primavera,Entrada,hotel primavera,POINT(-34.8711771870555 -7.99606574146515),2025-11-18 07:12:53.298744 UTC,,2025-11-18 09:35:05.801339 UTC,true,true,,b0be061a-03dd-4a61-9d2a-79a6fd9c0d7d,,-7.99607,-34.87118
